EO50 Approval Date,Business Name,Business Address,Business City,Business State,Business Phone,Postcode,Borough,Community Board,Latitude,Longitude,Council District,BIN,BBL,Census Tract (2020),Neighborhood Tabulation Area (NTA) (2020)
06/02/2021 12:00:00 AM,122 Fifth Associates LLC,120 Fifth Avenue,New York,New York,646-630-8609,10011,MANHATTAN,105,40.738077,-73.992123,3,1015419,1008190037,54,MN0501
06/02/2021 12:00:00 AM,"Broadway Construction Group, LLC",140 Broadway,New York,New York,212-837-4614,10005,MANHATTAN,101,40.709043,-74.010626,1,1001027,1000480001,7,MN0101
06/02/2021 12:00:00 AM,Habacus Construction Inc.,1261 Thieriot Avenue,Bronx,New York,718-295-5222,10472,BRONX,209,40.831459,-73.864364,18,2024786,2037650047,70,BX0901
06/02/2021 12:00:00 AM,Mepa Realty LLC,19 West 24th Street,New York,New York,212-518-4942,10010,MANHATTAN,105,40.742633,-73.990094,3,1015598,1008260026,58,MN0501
06/02/2021 12:00:00 AM,"The Rinaldi Group of New York, LLC",1 Harmon Meadow Boulevard,Secaucus,New Jersey,201-601-4065,07094,,,,,,,,,
06/07/2021 12:00:00 AM,102 Commerce Street BRK LLC,25 West 39th Street,New York,New York,917-232-5849,10018,MANHATTAN,105,40.752022,-73.983304,4,1016041,1008410020,84,MN0502
06/07/2021 12:00:00 AM,105-02 Forest Hills LLC,38 East 29th Street,New York,New York,646-439-4000,10016,MANHATTAN,105,40.744436,-73.984807,2,1016915,1008580049,74,MN0501
06/07/2021 12:00:00 AM,356 Devoe Street BRK LLC,25 West 39th Street,New York,New York,917-232-5849,10018,MANHATTAN,105,40.752022,-73.983304,4,1016041,1008410020,84,MN0502
06/07/2021 12:00:00 AM,"W.J. Regan & Company, LLC",PO Box 123,Wyckoff,New Jersey,646-859-8009,07481,,,,,,,,,
06/09/2021 12:00:00 AM,FPL Fabricators and Erectors Group LLC,5912 57th Street,Maspeth,New York,718-384-3600,11378,,405,40.718221,-73.911928,30,4535044,4026310030,53501,QN0501
06/09/2021 12:00:00 AM,Urban Foundation Engineering LLC,32-33 111th Street,East Elmhurst,New York,718-478-3021,11369,QUEENS,403,40.759107,-73.859104,21,4042316,4017050053,373,QN0302
06/10/2021 12:00:00 AM,511 Fifth Partners LLC,1407 Broadway,New York,New York,917-584-2975,10018,MANHATTAN,105,40.753439,-73.987151,3,1015265,1008140015,113,MN0502
06/10/2021 12:00:00 AM,"Urban Atelier Group, LLC",85 5th Avenue,New York,New York,917-797-6797,10003,MANHATTAN,105,40.737416,-73.992581,2,1016080,1008440001,52,MN0501
06/14/2021 12:00:00 AM,L3 104-106 N 7 LLC,550 West Adams Street,Chicago,Illinois,312-878-4858,60661,,,,,,,,,
06/16/2021 12:00:00 AM,"A & B Heating and Air Conditioning, Inc.",2129 Richmond Terrace,Staten Island,New York,718-556-0260,10302,,501,40.640302,-74.134148,49,5025252,5010680087,20702,SI0106
06/16/2021 12:00:00 AM,JFK Hotel Partners LLC,420 Great Neck Road,Great Neck,New York,516-773-9300,11021,,,,,,,,,
06/21/2021 12:00:00 AM,Mace Contracting Corp.,35 Portman Road,New Rochelle,New York,914-576-0606,10801,,,,,,,,,
06/21/2021 12:00:00 AM,"Ruttura & Sons Construction Co., Inc.",200 Cabot Street,West Babylon,New York,631-454-0291,11704,,,,,,,,,
06/21/2021 12:00:00 AM,"Standard Concrete & Excavation, Inc.",99 Wall Street,New York,New York,646-901-4900,10005,MANHATTAN,101,40.705,-74.007156,1,1000865,1000337501,7,MN0101
06/23/2021 12:00:00 AM,"D & D Electrical Construction Compnay, Inc",18 West 27th Street,New York,New York,646-851-0016,10001,MANHATTAN,105,40.744717,-73.989325,3,1015659,1008280059,58,MN0501
06/23/2021 12:00:00 AM,New Soho Associates LLC,73 Spring Street,New York,New York,212-431-7500,10012,MANHATTAN,102,40.722542,-73.997673,1,1079952,1004960036,43,MN0201
06/24/2021 12:00:00 AM,Boccella Precast LLC,324 New Brooklyn Road,Berlin,New Jersey,856-767-3861,08009,,,,,,,,,
06/24/2021 12:00:00 AM,"J.T. Magen & Company, Inc.",44 West 28th Street,New York,New York,212-790-4228,10001,MANHATTAN,105,40.745556,-73.989386,3,1015707,1008290068,58,MN0501
06/24/2021 12:00:00 AM,JTRE 14 Vesey LLC,385 Fifth Avenue,New York,New York,212-295-8004,10016,MANHATTAN,105,40.749563,-73.983726,4,1017134,1008650071,82,MN0502
06/24/2021 12:00:00 AM,"Moncon, Inc.",1460 Sheridan Boulevard,Bronx,New York,914-619-1719,10459,BRONX,209,40.831939,-73.884415,17,2010977,2030170074,157,BX0303
06/24/2021 12:00:00 AM,Y & Y Concrete Inc.,5308 13th Avenue,Brooklyn,New York,718-925-2992,11219,BROOKLYN,312,40.632675,-73.994581,44,3139018,3056690070,218,BK1202
06/28/2021 12:00:00 AM,Combined Resources Interiors,101 Sheer Plaza,Plainview,New York,516-777-1159,11803,,,,,,,,,
06/30/2021 12:00:00 AM,"March Associates Construction, Inc.",601 Hamburg Turnpike,Wayne,New Jersey,973-904-0213,07474,,,,,,,,,
07/06/2021 12:00:00 AM,"A. Bonaduce, Inc.",1060 Hwy 36,Atlantic Highlands,New Jersey,732-204-2085,07716,,,,,,,,,
07/06/2021 12:00:00 AM,Deadwood Construction Corp.,7 Purdy Street,Morrison,New York,914-619-6364,10528,,,,,,,,,
07/06/2021 12:00:00 AM,Mass Contracting Corp.,370 Lexington Avenue,New York,New York,212-308-9090,10017,MANHATTAN,105,40.750646,-73.976641,4,1036150,1012950058,80,MN0603
07/06/2021 12:00:00 AM,SNL Construction LLC,3333 New Hyde Park,Lake Success,New York,516-472-7880,11042,,,,,,,,,
07/06/2021 12:00:00 AM,"SNL XXIII, LLC",3333 New Hyde Park Road,New Hyde Park,New York,516-472-7880,11042,,,,,,,,,
07/06/2021 12:00:00 AM,"SNL XXIV, LLC",3333 New Hyde Park Road,New Hyde Park,New York,516-472-7880,11042,,,,,,,,,
07/06/2021 12:00:00 AM,"SNL XXV, LLC",3333 New Hyde Park Road,New Hyde Park,New York,516-472-7880,11042,,,,,,,,,
07/08/2021 12:00:00 AM,"Chick-fil-A, Inc.",5200 Buffington Road,Atlanta,Georgia,404-305-4264,30349,,,,,,,,,
07/08/2021 12:00:00 AM,Lorich Construction Management LLC,2070 Deer Park Avenue,Deer Park,New York,631-254-3680,11729,,,,,,,,,
07/08/2021 12:00:00 AM,Michelangelo GIIK Flatiron LLC,125 Park Avenue,New York,New York,212-850-5421,10017,MANHATTAN,105,40.751681,-73.977677,4,1036151,1012960001,80,MN0603
07/08/2021 12:00:00 AM,The Sweet Construction Group,5 Hanover Square,New York,New York,917-751-3493,10004,MANHATTAN,101,40.704923,-74.009046,1,1000832,1000280005,7,MN0101
07/12/2021 12:00:00 AM,Lettire Construction Corp.,334-336 East 110th Street,New York,New York,212-996-6640,10029,MANHATTAN,111,40.792786,-73.939638,8,1052844,1016810036,180,MN1102
07/12/2021 12:00:00 AM,Redfern FRP LLC,902 Broadway,New York,New York,212-243-9090,10010,MANHATTAN,105,40.739279,-73.989726,2,1016201,1008490016,52,MN0501
07/13/2021 12:00:00 AM,1000 Westchester Avenue LLC,450 West 14th Street,New York,New York,212-620-0500,10014,MANHATTAN,102,40.74184,-74.007503,3,1012223,1006467502,79,MN0203
07/13/2021 12:00:00 AM,Neiva Construction Corp.,18 Oakdale Avenue,Selden,New York,516-779-8753,11784,,,,,,,,,
07/15/2021 12:00:00 AM,80 Willoughby LLC,73 Sprin Street,New York,New York,212-431-7500,10012,MANHATTAN,,,,,,,,
07/15/2021 12:00:00 AM,"M + R Construction Group, Inc.",144 McClean Avenue,Staten Island,New York,917-747-5863,10305,,502,40.597915,-74.066833,50,5000000,5031140028,74,SI0201
07/20/2021 12:00:00 AM,Eastern Air Inc.,260 Johnson Avenue,Brooklyn,New York,718-821-3636,11206,BROOKLYN,301,40.707081,-73.937926,34,3071300,3030730034,485,BK0104
07/20/2021 12:00:00 AM,Elite Glass Installations LLC,3003 Woodbridge Avenue,Edison,New Jersey,201-333-8100,08837,,,,,,,,,
07/21/2021 12:00:00 AM,6301 12th Ave LLC,1371 42nd Street,Brooklyn,New York,718-923-3113,11219,BROOKLYN,312,40.638087,-73.986604,39,3135756,3055940048,232,BK1202
07/21/2021 12:00:00 AM,"Casino Development Group, Inc.",54-01 43rd Street,Maspeth,New York,718-606-8616,11378,,402,40.732146,-73.924553,26,4058814,4025220010,205,QN0202
07/21/2021 12:00:00 AM,SD Builders and Construction LLC,38 East 29th Street,New York,New York,646-439-4000,10016,MANHATTAN,105,40.744436,-73.984807,2,1016915,1008580049,74,MN0501
07/21/2021 12:00:00 AM,Townhouse Builders Inc,36-11 14th Avenue,Brooklyn,New York,718-851-9090,11218,BROOKLYN,312,40.640848,-73.982459,39,3125035,3053490001,228,BK1202
07/26/2021 12:00:00 AM,"P.E. Stone, Inc.",50 Watts Street,New York,New York,212-334-1113,10013,MANHATTAN,102,40.723684,-74.005314,1,1007122,1004770066,37,MN0201
07/26/2021 12:00:00 AM,Wolkow Braker Roofing Corporation,151 Herricks Road,Garden City,New York,516-282-1756,11040,,,,,,,,,
07/27/2021 12:00:00 AM,Americon HITT,120 Broadway,New York,New York,212-229-5215,10271,MANHATTAN,101,40.708546,-74.011041,1,1001026,1000477501,7,MN0101
07/28/2021 12:00:00 AM,"GGP Staten Island Mall LLC, a Delaware Limited Liability Company",500 Fifth Avenue,New York,New York,646-553-2314,10110,MANHATTAN,105,40.753543,-73.980856,4,1034199,1012580034,96,MN0502
08/02/2021 12:00:00 AM,Zapata Construction Inc.,620 Fifth Avenue,Pelham,New York,914-738-5400,10803,,,,,,,,,
08/03/2021 12:00:00 AM,"View, Inc.",740 BROADWAY,New York,New York,662-892-3415,10003,MANHATTAN,102,40.729884,-73.992993,2,1080092,1005450026,57,MN0202
08/04/2021 12:00:00 AM,"R & S United Services, Inc.",15 Ranick Drive West,Amityville,New York,631-841-1525,11701,,,,,,,,,
08/05/2021 12:00:00 AM,Konrad Group LP,503 Broadway,New York,New York,212-960-8385,10012,MANHATTAN,102,40.722301,-73.999437,1,1007251,1004847502,49,MN0201
08/06/2021 12:00:00 AM,KJC Waterproofing Inc.,39 W. Quackenbush Avenue,Dumont,New Jersey,201-384-9661,07628,,,,,,,,,
08/09/2021 12:00:00 AM,"A & M Warshaw Plumbing & Heating, Inc.",575 Lexington Avenue,New York,New York,212-343-0101,10022,MANHATTAN,106,40.757216,-73.971827,4,1036461,1013060023,100,MN0604
08/09/2021 12:00:00 AM,Architectural Metal and Glass,66 Grant Avenue,Carteret,New Jersey,732-352-0763,07008,,,,,,,,,
08/13/2021 12:00:00 AM,"JVN Restoration, Inc.",47 Foster Road,Staten Island,New York,718-605-6256,10309,,503,40.528324,-74.201986,51,5084016,5068590009,20804,SI0304
08/18/2021 12:00:00 AM,Enercon Technical Service,1233 McDonald Avenue,Brooklyn,New York,917-705-0512,11230,BROOKLYN,312,40.622841,-73.975649,44,3171057,3065240075,450,BK1204
08/18/2021 12:00:00 AM,Liberty Elevator Corporation,63 East 24th Street,Paterson,New Jersey,973-279-1390,07614,,,,,,,,,
08/20/2021 12:00:00 AM,Otis Elevator Company,250 East 34th Street,New York,New York,917-339-9600,10119,MANHATTAN,106,40.745129,-73.97673,4,1020129,1009140035,7002,MN0603
08/23/2021 12:00:00 AM,NY EZ Property Holdings LLC,141-47 Northern Boulevard,Flushing,New York,917-299-4388,11354,QUEENS,407,40.764407,-73.825539,20,4609746,4050020082,1161,QN0707
08/26/2021 12:00:00 AM,Water Street Leasehold LLC,767 Third Avenue,New York,New York,212-755-5151,10017,MANHATTAN,106,40.754276,-73.971879,4,1037996,1013210047,90,MN0604
08/31/2021 12:00:00 AM,375 Park Fee LLC,375 Park Avenue,New York,New York,212-308-1000,10152,MANHATTAN,105,40.758786,-73.972801,4,1036465,1013070001,100,MN0604
08/31/2021 12:00:00 AM,Island Diversified Inc.,1191 Scott Avenue,Calverton,New York,631-953-6990,11933,,,,,,,,,
09/02/2021 12:00:00 AM,JTRE 23 WS (DEL) LLC,385 Fifth Avenue,New York,New York,212-295-8004,10016,MANHATTAN,105,40.749563,-73.983726,4,1017134,1008650071,82,MN0502
09/08/2021 12:00:00 AM,"CSI Construction Services, Inc.",374 New York Avenue,Newark,New Jersey,862-237-7345,07105,,,,,,,,,
09/23/2021 12:00:00 AM,Phase 1 Group Inc.,59 Englewood Avenue,Staten Island,New York,732-379-4990,10309,,503,40.533694,-74.234732,51,5155255,5073800029,22602,SI0305
09/24/2021 12:00:00 AM,EC Contracting Inc.,25 Banfi Plaza West,Farmingdale,New York,516-546-8400,11735,,,,,,,,,
09/24/2021 12:00:00 AM,"Perini Group, Inc.",112-51 Northern Boulevard,Corona,New York,718-288-0128,11368,QUEENS,403,40.75817,-73.856724,21,4000000,4017070008,373,QN0302
09/24/2021 12:00:00 AM,TDC Corporation Inc.,901 Nepperhan Avenue,Yonkers,New York,914-906-7286,10703,,,,,,,,,
09/24/2021 12:00:00 AM,The Moore Group Corporation,1 Jefferson Place,Baldwin,New York,516-746-6300,11510,,,,,,,,,
09/27/2021 12:00:00 AM,Pavarini McGovern,330 West 347th Street,New York,New York,212-907-0900,10001,MANHATTAN,,,,,,,,
09/27/2021 12:00:00 AM,Seamless Industrial Inc.,23-96 48th Street,Astoria,New York,718-685-2875,11103,QUEENS,401,40.766117,-73.904392,22,4013610,4007330082,141,QN0104
09/27/2021 12:00:00 AM,Trinity Hudson Holdings LLC c/o Hines,345 Hudson Street,New York,New York,646-701-5160,10014,MANHATTAN,102,40.72754,-74.007295,3,1010378,1005980058,37,MN0201
09/28/2021 12:00:00 AM,Next Generation Fulton LLC,667 Madison Avenue,New York,New York,212-292-0208,10065,MANHATTAN,108,40.764613,-73.97024,4,1072007,1013750049,11401,MN0802
09/29/2021 12:00:00 AM,Acon Construction,5105 Flushing Avenue,Maspeth,New York,718-392-5802,11378,,405,40.71355,-73.91561,30,4437481,4026110450,53502,QN0501
10/01/2021 12:00:00 AM,Argonaut Holdings Inc.,300 Renaissance Center,Detroit,Michigan,312-268-8240,48265,,,,,,,,,
10/01/2021 12:00:00 AM,CBRE,200 Park Avneue,New York,New York,212-824-2150,10166,MANHATTAN,,,,,,,,
10/01/2021 12:00:00 AM,"ESRT 1400 Broadway, L.P. c/o Empire State Realty Trust",111 West 33rd Street,New York,New York,212-850-2680,10120,MANHATTAN,105,40.749399,-73.988869,3,1015201,1008090053,101,MN0501
10/01/2021 12:00:00 AM,"ESRT Empire State Building, L.L.C. c/o Empire State Realty Trust",111 West 33rd Street,New York,New York,212-850-2680,10120,MANHATTAN,105,40.749399,-73.988869,3,1015201,1008090053,101,MN0501
10/01/2021 12:00:00 AM,V & P Altitude Corp.,3708 Fort Hamilton Parkway,Brooklyn,New York,718-436-0522,11218,BROOKLYN,312,40.644027,-73.989215,38,3122942,3052890048,110,BK1201
10/04/2021 12:00:00 AM,2686-2690 Broadway LLC,75 Broad Street,New York,New York,212-742-0835,10004,MANHATTAN,101,40.704541,-74.011552,1,1000849,1000290070,9,MN0101
10/04/2021 12:00:00 AM,"Anthony G. Ferry, Inc.",314 City Island Avenue,Bronx,New York,646-678-4460,10464,BRONX,210,40.847444,-73.786556,13,2082610,2056440003,51601,BX1003
10/04/2021 12:00:00 AM,"ESRT 1333 Broadway, LLC","111 West 33rd Street c/o Empire State Realty Trust, Inc",New York,New York,212-850-2720,10001,MANHATTAN,105,40.749399,-73.988869,3,1015201,1008090053,101,MN0501
10/04/2021 12:00:00 AM,ESRT 1350 Broadway LLC,"111 West 33rd Street c/o Empire State Realty Trust, Inc.",New York,New York,212-850-2720,10001,MANHATTAN,105,40.749399,-73.988869,3,1015201,1008090053,101,MN0501
10/04/2021 12:00:00 AM,"ESRT 1359 Broadway, LLC","111 West 33rd Street c/o Empire State Realty Trust, Inc.",New York,New York,212-850-2720,10001,MANHATTAN,105,40.749399,-73.988869,3,1015201,1008090053,101,MN0501
10/04/2021 12:00:00 AM,Hudson Black Inc.,270 Sparta Avenue,Sparta,New Jersey,908-303-2899,07871,,,,,,,,,
10/04/2021 12:00:00 AM,"Noble Elevator Company, Inc.",1655 Sycamore Avenue,Bohemia,New York,631-981-4100,11716,,,,,,,,,
10/04/2021 12:00:00 AM,Premier Building & Renovations Corp.,769 Fulton Street,Farmingdale,New York,516-359-5729,11735,,,,,,,,,
10/13/2021 12:00:00 AM,"H.A.E. Air, Inc.",180 Gary Way,Ronkonkoma,New York,631-924-2180,11779,,,,,,,,,
10/13/2021 12:00:00 AM,"L & M Builders Group, Inc.",1865 Palmer Avenue,Larchmont,New York,914-833-3000,10538,,,,,,,,,
10/13/2021 12:00:00 AM,SV-A Moderate Owners LLC,551 Fifth Avnue,New York,New York,917-542-3600,10176,MANHATTAN,,,,,,,,
10/13/2021 12:00:00 AM,TRV Mechanical Heating & Air Conditioning,217 Markey Street,Kenilworth,New Jersey,908-241-6111,07033,,,,,,,,,
10/13/2021 12:00:00 AM,Trylon LLC,P.O. Box 660007,Fresh Meadows,New York,347-546-4426,11366,QUEENS,,,,,,,,
10/20/2021 12:00:00 AM,807 Bank Street Property LLC,4 Bryant Park,New York,New York,646-503-5717,10018,MANHATTAN,105,40.75387,-73.98483,4,1022566,1009930036,113,MN0502
10/20/2021 12:00:00 AM,Precision Elevator Corp,257 51st Street,Brooklyn,New York,718-782-7800,11220,BROOKLYN,307,40.647812,-74.016296,38,3250703,3007890050,20,BK0702
10/20/2021 12:00:00 AM,Reidy Contracting Group,120 W 31st Street,New York,New York,212-532-4600,10001,MANHATTAN,105,40.748241,-73.990003,3,1015170,1008060054,101,MN0501
10/20/2021 12:00:00 AM,"Steel 375 Johnson, LLC",999 S. Oyster Bay Road,Bethpage,New York,516-465-0053,11714,,,,,,,,,
10/21/2021 12:00:00 AM,Architectural Window Manufacturing Corporation,359 Veterans Boulevard,Rutherford,New Jersey,201-939-2200,07070,,,,,,,,,
10/21/2021 12:00:00 AM,GRJ Construction Corporation,101 Belmont Avenue,Garfield,New Jersey,973-317-3671,07026,,,,,,,,,
10/21/2021 12:00:00 AM,Premiere Design + Build Group,1000 West Irving Park Rd,Itasca,Illinois,847-297-4200,60143,,,,,,,,,
10/27/2021 12:00:00 AM,New Leaf Development LLC,461 20th Street,Brooklyn,New York,718-984-5940,11215,BROOKLYN,307,40.657279,-73.985147,39,3259245,3008880059,1502,BK0701
10/27/2021 12:00:00 AM,OCPG LLC,130 West 42nd Street,New York,New York,212-920-3384,10036,MANHATTAN,105,40.755278,-73.985172,4,1022577,1009940045,113,MN0502
11/01/2021 12:00:00 AM,All Above Storefronts Inc.,50 Gilpin Avenue,Hauppauge,New York,631- 627-3539,11788,,,,,,,,,
11/01/2021 12:00:00 AM,CNY Hospitality LLC,1440 Broadway,New York,New York,646-895-8860,10018,MANHATTAN,105,40.754611,-73.986761,4,1022563,1009930011,113,MN0502
11/01/2021 12:00:00 AM,Evergreen Builders and Construction Services Inc.,7 West 45th Street,New York,New York,212-575-8777,10036,MANHATTAN,105,40.755678,-73.980101,4,1034250,1012610030,96,MN0502
11/01/2021 12:00:00 AM,Stream Plumbing Inc.,5956 55th Drive,Maspeth,New York,917-295-7909,11378,,405,40.725958,-73.907264,30,4607553,4026880061,531,QN0501
11/08/2021 12:00:00 AM,620 W 153 Realty LLC,84 Kosciuszko Street,Brooklyn,New York,718-963-0536,11205,BROOKLYN,303,40.690523,-73.952192,36,3049730,3017830047,241,BK0301
11/08/2021 12:00:00 AM,"Blue Millennium Realty, LLC",21 Dey Street,New York,New York,212-235-6360,10007,MANHATTAN,101,40.71092,-74.010608,1,1001070,1000630006,13,MN0101
11/08/2021 12:00:00 AM,MDB Development Corporation,511 Canal Street,New York,New York,212-431-3994,10013,MANHATTAN,102,40.724425,-74.008915,1,1010287,1005940008,37,MN0201
11/08/2021 12:00:00 AM,New Roc Contracting Corp.,2125 Center Avenue,Fort Lee,New Jersey,914-500-3994,07024,,,,,,,,,
11/08/2021 12:00:00 AM,Vee Holding LLC,36 Taafe Place,Brooklyn,New York,718-963-9845,11205,BROOKLYN,,,,,,,,
11/16/2021 12:00:00 AM,132 West 14th Street Ground Lessee LLC c/o KPG Funds,433 Broadway,New York,New York,646-665-4508,10013,MANHATTAN,102,40.720077,-74.00132,1,1090587,1002310014,47,MN0201
11/16/2021 12:00:00 AM,Grand Construction & Development Group Corp.,112-15 Northern Boulevard,Corona,New York,718-397-8800,11368,QUEENS,403,40.758108,-73.857201,21,4594919,4017067501,373,QN0302
11/16/2021 12:00:00 AM,Justice Ave Tower II LLC,112-15 Northern Boulevard,Corona,New York,718-397-8800,11368,QUEENS,403,40.758108,-73.857201,21,4594919,4017067501,373,QN0302
11/16/2021 12:00:00 AM,New Hudson Facades,815 Columbia Avenue,Linwood,Pennsylvania,610-498-8100,19061,,,,,,,,,
11/16/2021 12:00:00 AM,ZB Pearl LLC,225 West 37th Street,New York,New York,347-837-2994,10018,MANHATTAN,105,40.753288,-73.99015,3,1014457,1007870025,109,MN0502
11/17/2021 12:00:00 AM,Commodore Construction Corp.,602 South 3rd Avenue,Mount Vernon,New York,914-297-3010,10550,,,,,,,,,
11/23/2021 12:00:00 AM,Boston Properties Limited Partnership,599 Lexington Avenue,New York,New York,212-326-4030,10022,MANHATTAN,106,40.758275,-73.971055,4,1036467,1013070023,100,MN0604
11/23/2021 12:00:00 AM,"CBB Venture, LLC",38 Corbett Way,Eatontown,New Jersey,212-619-3727,07724,,,,,,,,,
11/23/2021 12:00:00 AM,IG Construction Group,1384 Broadway,New York,New York,212-268-8602,10018,MANHATTAN,105,40.752577,-73.987378,4,1015261,1008130050,109,MN0502
11/23/2021 12:00:00 AM,KNR Construction LLC,62 Segwick Avenue,Yonkers,New York,914-320-4748,10705,,,,,,,,,
11/23/2021 12:00:00 AM,Precise Painting & Wallcovering,2092 Route 302,Circleville,New York,845-361-5004,10919,,,,,,,,,
12/01/2021 12:00:00 AM,144-20 LLC,138-18 101st Avenue,Queens,New York,917-560-2555,11435,QUEENS,412,40.694408,-73.810288,27,4214342,4100180007,206,QN1201
12/01/2021 12:00:00 AM,210 Clarkson Propco LLC,153-90 Rockaway Boulevard,Jamaica,New York,718-557-7717,11434,QUEENS,412,40.668711,-73.781786,28,4263211,4121370020,294,QN1204
12/01/2021 12:00:00 AM,NY Developers & Management LLC,266 47th Street,Brooklyn,New York,718-260-8940,11220,BROOKLYN,307,40.649948,-74.013824,38,3396951,3007630034,20,BK0702
12/01/2021 12:00:00 AM,Sela Ryerson LLC,36-37 36th Street,Astoria,New York,718-784-7700,11106,QUEENS,401,40.753949,-73.926362,26,4009530,4006360015,55,QN0105
12/07/2021 12:00:00 AM,25C LLC,249 Smith Street,Brooklyn,New York,347-925-0909,11231,BROOKLYN,306,40.683311,-73.992767,39,3006697,3004150008,75,BK0601
12/07/2021 12:00:00 AM,440 Ninth Avenue Owner LLC c/o Tactonic Management Company LLC,111 Eighth Avenue Suite 1513,New York,New York,212-220-9945,10011,MANHATTAN,104,40.740704,-74.001844,3,1013043,1007390001,83,MN0401
12/07/2021 12:00:00 AM,Avalanche Builder LLC,37-10 11 Street,Long Island City,New York,201-850-2431,11101,QUEENS,401,40.759463,-73.941011,26,4004385,4003600023,85,QN0105
12/07/2021 12:00:00 AM,Dutch Vortex LLC,37-38 31st Street,Long Island City,New York,212-643-9292,11101,QUEENS,401,40.754479,-73.931472,26,4004534,4003720033,51,QN0105
12/07/2021 12:00:00 AM,"EV Liberty, LLC",3323 NE 163rd Street,Miami,Florida,786-627-6034,33160,,,,,,,,,
12/07/2021 12:00:00 AM,Park Hotel Bronx LLC,87-21 144th Street,Queens,New York,917-627-5286,11435,QUEENS,408,40.706411,-73.81206,24,4207358,4097030007,232,QN0805
12/07/2021 12:00:00 AM,Patel Construction LLC,87-23 144th Street,Queens,New York,347-453-8464,11435,QUEENS,408,40.706376,-73.812057,24,4207357,4097030005,232,QN0805
12/07/2021 12:00:00 AM,Suffolk Construction Company,One Pennsylvania Plaza,New York,New York,646-952-8000,10119,MANHATTAN,,,,,,,,
12/07/2021 12:00:00 AM,"Terry Contracting & Materials, Inc.",1146 Osborn Avenue,Riverhead,New York,631-680-9594,11901,,,,,,,,,
12/07/2021 12:00:00 AM,Vision Asset Group LLC,87-23 144th Street,Queens,New York,917-627-5286,11435,QUEENS,408,40.706376,-73.812057,24,4207357,4097030005,232,QN0805
12/14/2021 12:00:00 AM,109 Port Richmon LLC,238 Causeway,Lawrence,New York,718-846-7443,11559,,,,,,,,,
12/14/2021 12:00:00 AM,All City Metal,956 Brush Hollow Road,Westbury,New York,718-472-5700,11590,,,,,,,,,
12/14/2021 12:00:00 AM,Bayport Construction Corp,1286 Prospect Place,Brooklyn,New York,718-439-0400,11213,BROOKLYN,308,40.673441,-73.934219,36,3036168,3013650042,345,BK0802
12/14/2021 12:00:00 AM,DK Construction One Corp.,41-20 39th Street,Long Island City,New York,914-643-0805,11104,QUEENS,402,40.747163,-73.925532,26,4535364,4002150016,17901,QN0202
12/14/2021 12:00:00 AM,Right Away Electric LLC,57-52 58th Place,Maspeth,New York,212-776-1167,11378,,405,40.721563,-73.910607,30,4059886,4026760044,531,QN0501
12/14/2021 12:00:00 AM,With Pride Air Conditioning & Heating Inc.,90 Verdi Street,Farmingdale,New York,516-731-2573,11735,,,,,,,,,
12/16/2021 12:00:00 AM,"HDK Construction, LLC",140 E. 45th Street,New York,New York,212-687-8400,10017,MANHATTAN,106,40.753157,-73.974172,4,1036176,1012990027,92,MN0604
12/16/2021 12:00:00 AM,JA Jennings,211 East 43rd Street,New York,New York,646-532-2343,10017,MANHATTAN,106,40.751238,-73.973458,4,1037556,1013170007,88,MN0603
12/17/2021 12:00:00 AM,Sirina Fire Protection Corp.,151 Herricks Road,Garden City,New York,516-942-0400,11040,,,,,,,,,
01/04/2022 12:00:00 AM,215-01 42nd Avenue LLC,26 W 17th Street,New York,New York,212-904-0403,10011,MANHATTAN,105,40.738349,-73.993277,3,1015400,1008180066,54,MN0501
01/04/2022 12:00:00 AM,Madaleo Realty Corp.,244 Madison Avenue,New York,New York,212-213-8120,10016,MANHATTAN,105,40.750131,-73.981247,4,1017221,1008670057,82,MN0502
01/05/2022 12:00:00 AM,"CMS  Mechanical, Inc.",381 S 5th Street,Brooklyn,New York,718-640-1699,11211,BROOKLYN,301,40.707629,-73.953241,34,3335956,3024517502,527,BK0102
01/05/2022 12:00:00 AM,Porcelanosa,600 Route 17N,Ramsey,New Jersey,201-995-1310,07446,,,,,,,,,
01/05/2022 12:00:00 AM,"Vanquish Group, Inc.",59 - 43 56th Road,Maspeth,New York,718-433-0023,11378,QUEENS,405,40.724671,-73.908564,30,,,531,QN0501
01/07/2022 12:00:00 AM,Fulton Gate Realty LLC,15 Ocean Avenue,Brooklyn,New York,718-703-8441,11225,BROOKLYN,309,40.662643,-73.962842,40,3114558,3050240029,327,BK0902
01/07/2022 12:00:00 AM,JDP Mechanical Incorporated,24-39 44th Street,Astoria,New York,718-267-6767,11103,QUEENS,401,40.767143,-73.907914,22,4461896,4007170060,141,QN0104
01/10/2022 12:00:00 AM,All Glassmetal Fabrications,1280 Saw Mill River Road,Yonkers,New York,646-773-1628,10710,,,,,,,,,
01/10/2022 12:00:00 AM,John Civetta & Sons Incorporated,1123 Bronx River Avenue,Bronx,New York,718-589-9000,10472,BRONX,209,40.826048,-73.883435,17,2094852,2037340001,52,BX0901
01/12/2022 12:00:00 AM,HVAC Construction,530 Seventh Avenue,New York,New York,914-409-5988,10018,MANHATTAN,105,40.753851,-73.988551,3,1014485,1007880049,113,MN0502
01/12/2022 12:00:00 AM,Parkview Plumbing & Heating Inc.,2210 Reeds Mill Lane,Bronx,New York,718-792-3500,10475,BRONX,212,40.882627,-73.83036,12,2123649,2052630132,46209,BX1202
01/12/2022 12:00:00 AM,Welsbach Electric Corporation,111-01 14th Avenue,College Point,New York,718-670-7873,11356,QUEENS,407,40.785647,-73.855852,19,4097652,4040320001,929,QN0701
01/14/2022 12:00:00 AM,"Allstate Interior Demolition, Inc.",242 Randolph Street,Brooklyn,New York,718-388-6302,11237,BROOKLYN,301,40.710152,-73.923643,34,3070593,3029890020,44902,BK0104
01/18/2022 12:00:00 AM,"Chestnut Avenue, LLC",1733 Sheepshead Bay Road,Brooklyn,New York,718-645-7770,11235,BROOKLYN,315,40.585491,-73.951591,48,3247039,3087720078,600,BK1503
01/18/2022 12:00:00 AM,YM Pro Corp.,150 Bay 17th Street,Brooklyn,New York,347-231-6856,11214,BROOKLYN,311,40.6047,-74.006547,38,3167699,3064010049,178,BK1102
01/19/2022 12:00:00 AM,"ARCO Design/Build Industrial New York, LLC",44 South Broadway,White Plains,New York,914-336-1997,10601,,,,,,,,,
01/19/2022 12:00:00 AM,Donato Plumbing Inc.,145 West 45th Street,New York,New York,212-300-4199,10036,MANHATTAN,105,40.757336,-73.984017,4,1022634,1009980012,119,MN0502
01/19/2022 12:00:00 AM,"RS JZ Bedford - N 6TH, LLC",550 W Adams Street,Chicago,Illinois,312-878-4845,60661,,,,,,,,,
01/20/2022 12:00:00 AM,437 Madison Avenue Tenant LLC c/o WeWork,575 Lexington Avenue,New York,New York,646-974-2817,10022,MANHATTAN,106,40.757216,-73.971827,4,1036461,1013060023,100,MN0604
01/20/2022 12:00:00 AM,CGS Rebar Inc.,53B White Birch Circle,Miller Place,New York,516-578-1967,11764,,,,,,,,,
01/20/2022 12:00:00 AM,Madison Avenue Leasehold LLC,767 Third Avenue,New York,New York,646-964-9907,10017,MANHATTAN,106,40.754276,-73.971879,4,1037996,1013210047,90,MN0604
01/24/2022 12:00:00 AM,Core Four Construction,200 Madison Avenue,New York,New York,212-779-3900,10016,MANHATTAN,105,40.748528,-73.982413,4,1017122,1008650014,82,MN0502
01/25/2022 12:00:00 AM,"S & E Bridge & Scaffold, Inc.",700 Commercial Avenue,Carlstadt,New Jersey,201-933-3418,07072,,,,,,,,,
01/27/2022 12:00:00 AM,Prime Structure Inc.,670 Myrtle Avenue,Brooklyn,New York,718-222-1099,11205,BROOKLYN,303,40.694447,-73.95722,33,3334944,3019137515,235,BK0301
01/28/2022 12:00:00 AM,"60 Wall Owner LP c/o 1633 Broadway, c/o Parmount Group, Inc.",1633 Broadway,New York,New York,212-237-3134,10019,MANHATTAN,105,40.761574,-73.983962,3,1024812,1010220043,131,MN0502
01/31/2022 12:00:00 AM,2033 National Black Theater Way LLC,2 Park Avenue,New York,New York,914-833-3000,10016,MANHATTAN,105,40.746077,-73.982092,4,1017019,1008620029,74,MN0501
01/31/2022 12:00:00 AM,East West General Construction Corp.,142-38 37 Avenue,Flushing,New York,718-888-1105,11354,QUEENS,407,40.762647,-73.826587,20,4595176,4050117504,865,QN0707
01/31/2022 12:00:00 AM,Eastone Parsons Holding LLC,36-26 Main Street,Flushing,New York,917-299-4388,11354,QUEENS,407,40.762396,-73.831637,20,4112245,4049710045,869,QN0707
02/01/2022 12:00:00 AM,AJ Contracting,297 Knollwood Road,White Plains,New York,914-667-8500,10607,,,,,,,,,
02/01/2022 12:00:00 AM,"Atlantic Reinforcing Concrete Company, Inc.",14 Burt Drive,Deer Park,New York,631-242-5020,11719,,,,,,,,,
02/02/2022 12:00:00 AM,"AQOSFI Inwood, LLC",1600 Market street,New York,New York,215-735-1313,19103,MANHATTAN,,,,,,,,
02/07/2022 12:00:00 AM,"Consigli Construction Co., Inc.",333 Seventh Street,New York,New York,646-679-3500,10001,MANHATTAN,,,,,,,,
02/07/2022 12:00:00 AM,Horizon Mechanical Inc.,891 Bloomfield Avenue,Clifton,New Jersey,201-704-0056,07012,,,,,,,,,
02/09/2022 12:00:00 AM,Court Square 23rd LLC,260 Franklin Street,Boston,Massachusetts,617-631-2600,02110,,,,,,,,,
02/09/2022 12:00:00 AM,"G. A. Fleet Associates, Inc.",6 International Drive,Rye Brook,New York,914-835-4000,10573,,,,,,,,,
02/11/2022 12:00:00 AM,Division Builders Inc.,42 Division Place,Brooklyn,New York,646-682-7276,11222,BROOKLYN,301,40.720613,-73.938938,34,3338289,3028500014,44901,BK0104
02/11/2022 12:00:00 AM,"Kam Kee Realty, Inc.",105 West 27 Street,New York,New York,646-682-7276,10001,MANHATTAN,105,40.745705,-73.991613,3,1015072,1008030031,95,MN0501
02/14/2022 12:00:00 AM,"Competition Architectural Metals, Inc.",20 Constance Court,Hauppauge,New York,631-756-5700,11788,,,,,,,,,
02/15/2022 12:00:00 AM,Deadwood Construction Inc.,614 Midland Avenue,Yonkers,New York,914-294-8052,10704,,,,,,,,,
02/17/2022 12:00:00 AM,Windecker Construction LLC,2 Elizabeth Lane,Mahwah,New Jersey,201-819-4427,07430,,,,,,,,,
02/18/2022 12:00:00 AM,L & M Construction/ Dry Wall Inc.,1079 Yonkers Avenue,Yonkers,New York,914-226-8556,10704,,,,,,,,,
02/22/2022 12:00:00 AM,17 GNR LLC,258 85th Street,Brooklyn,New York,646-208-1477,11209,BROOKLYN,310,40.624599,-74.031881,47,3153072,3060330032,62,BK1001
02/22/2022 12:00:00 AM,ACS Systems,101 New South Road,Hicksville,New York,516-681-1350,11801,,,,,,,,,
02/22/2022 12:00:00 AM,Agir Electrical Ltd.,53-01 11th Street,Long Island City,New York,718-846-6200,11101,QUEENS,402,40.740233,-73.952052,26,4000000,4000650056,104,QN0201
02/22/2022 12:00:00 AM,ClearSpan Fabric Structures International,603 Hebron Avenue,Glastonbury,Connecticut,860-528-1119,06033,,,,,,,,,
02/22/2022 12:00:00 AM,DS Specialties Inc.,2740 State Route 11,Mooers,New York,518-236-4338,12958,,,,,,,,,
02/22/2022 12:00:00 AM,"DWF VI 325 Hudson, LLC",540 Madison Avenue,New York,New York,617-914-8666,10022,MANHATTAN,105,40.761081,-73.973797,4,1035759,1012900056,102,MN0502
02/22/2022 12:00:00 AM,"MJM Associates Construction, LLC",511 Canal Street,New York,New York,646-974-5500,10013,MANHATTAN,102,40.724425,-74.008915,1,1010287,1005940008,37,MN0201
02/25/2022 12:00:00 AM,"Vanguard Construction and Development Co., Inc.",350 5th Avenue,New York,New York,212-594-7477,10118,MANHATTAN,105,40.748276,-73.98469,4,1015862,1008350041,76,MN0501
03/04/2022 12:00:00 AM,37 Ave Richouse LLC,35-22 Linden Place,Flushing,New York,917-435-6795,11354,QUEENS,407,40.764077,-73.830438,20,4112143,4049590027,869,QN0707
03/04/2022 12:00:00 AM,3T GC LLC,35-22 Linden Place,Queens,New York,646-318-8483,11354,QUEENS,407,40.764077,-73.830438,20,4112143,4049590027,869,QN0707
03/04/2022 12:00:00 AM,4720 Development LLC,57 West 38th Street,New York,New York,914-490-1111,10018,MANHATTAN,105,40.751712,-73.984491,4,1016020,1008407501,84,MN0502
03/07/2022 12:00:00 AM,88 Tower LLC,15 West 27th Street,New York,New York,646-854-7102,10001,MANHATTAN,105,40.744371,-73.988459,3,1015685,1008290032,58,MN0501
03/07/2022 12:00:00 AM,Arch Builders LLC,15 West 27th Street,New York,New York,646-854-5811,10001,MANHATTAN,105,40.744371,-73.988459,3,1015685,1008290032,58,MN0501
03/09/2022 12:00:00 AM,B & G Electrical Contractors of N.Y. Inc,7100 New Horizons Boulevard,North Amityville,New York,631-669-6000,11701,,,,,,,,,
03/09/2022 12:00:00 AM,Expedite General Contracting Inc.,6013 56th Street,Maspeth,New York,718-896-3800,11378,QUEENS,405,40.716074,-73.911094,30,4059556,4026490052,59502,QN0501
03/11/2022 12:00:00 AM,1240 Properties 26 LLC,2 Mountain Road,Monroe,New York,718-812-7310,10950,,,,,,,,,
03/11/2022 12:00:00 AM,AMS Safety LLC,114 Maine Avenue,Staten Island,New York,718-447-5624,10314,STATEN IS,501,40.620695,-74.127456,50,5010637,5003740046,151,SI0105
03/11/2022 12:00:00 AM,Capitol Fire Sprinkler Co. Inc.,51-51 59th Place,Woodside,New York,718-533-6800,11377,QUEENS,402,40.735233,-73.905447,26,4054271,4023610001,229,QN0271
03/11/2022 12:00:00 AM,New York Certified Interior Corp.,829 East 15 Street,Brooklyn,New York,718-208-1717,11230,BROOKLYN,314,40.629381,-73.962183,45,3179372,3066990076,532,BK1403
03/15/2022 12:00:00 AM,Brocho VH LLC,538 Johnson Avenue,Brooklyn,New York,718-628-6700,11237,BROOKLYN,301,40.708633,-73.926798,34,3070622,3029940011,453,BK0104
03/16/2022 12:00:00 AM,"AV Design & Integration, Inc.",115 Wall Street,Valhalla,New York,914-345-2977,10595,,,,,,,,,
03/22/2022 12:00:00 AM,A.M.A. Ventures Inc.,30 Warren Place,Mount Vernon,New York,914-530-5252,10550,,,,,,,,,
03/22/2022 12:00:00 AM,A2K Electric Corp.,1661 McDonald Avenue,Brooklyn,New York,857-204-6629,11230,BROOKLYN,312,40.612227,-73.973632,44,3173549,3065830073,440,BK1204
03/22/2022 12:00:00 AM,"Colonial Electric Supply Co., Inc.",201 W. Church Road,King of Prussia,Pennsylvania,484-679-2100,19406,,,,,,,,,
03/23/2022 12:00:00 AM,Preferred Sprinkler & Mechanical Corp.,3129 Bailey AVenue,Bronx,New York,718-601-4470,10463,BRONX,208,40.878703,-73.901865,14,2016154,2032670054,277,BX0801
03/23/2022 12:00:00 AM,Schimenti Construction,575 Lexington Avenue,New York,New York,914-244-9100,10022,MANHATTAN,106,40.757216,-73.971827,4,1036461,1013060023,100,MN0604
03/24/2022 12:00:00 AM,AM Glass Inc.,5 Bridge Street,Garnerville,New York,845-942-8848,10923,,,,,,,,,
03/28/2022 12:00:00 AM,Nets That Work Company,322 Eighth Avenue,New York,New York,212-888-7683,10001,MANHATTAN,105,40.747294,-73.997023,3,1014225,1007760001,95,MN0501
03/29/2022 12:00:00 AM,16 Spencer LLC,199 Lee Avenyue,Brooklyn,New York,718-408-8778,11211,BROOKLYN,,,,,,,,
03/31/2022 12:00:00 AM,Countrywide Stone & Marble Inc.,22 Varick Avenue,Brooklyn,New York,718-635-4022,11237,BROOKLYN,301,40.706797,-73.926911,34,3070625,3029940090,453,BK0104
04/01/2022 12:00:00 AM,Dependable Mechanical,46-20 11th Street,New York,New York,347-345-5404,11101,MANHATTAN,402,40.745963,-73.950467,26,4435521,4000487501,702,QN0201
04/01/2022 12:00:00 AM,"Force Installations, LLC",262 Aspen Drive,Milford,Pennsylvania,929-237-6633,18337,,,,,,,,,
04/04/2022 12:00:00 AM,Capital Interiors Construction Corp.,510 Hempstead Turnpike,New York,New York,516-538-9800,11552,MANHATTAN,,,,,,,,
04/05/2022 12:00:00 AM,Chateau GC LLC,1044 Northern Boulevard,Roslyn,New York,516-277-9316,11576,,,,,,,,,
04/05/2022 12:00:00 AM,Egg Electirc Inc.,35 West 45th Street,New York,New York,212-633-9551,10036,MANHATTAN,105,40.75595,-73.980747,4,1034244,1012610019,96,MN0502
04/05/2022 12:00:00 AM,Peninsula Rockaway Limited Partnership/EC A1 Limited Partnership,1044 Northern Boulevard,Roslyn,New York,516-277-9325,11576,,,,,,,,,
04/06/2022 12:00:00 AM,US Chiller Services NY,44 Bethpage Road,Hicksville,New York,516-468-2641,11801,,,,,,,,,
04/06/2022 12:00:00 AM,"W & W Glass, LLC",302 Airport Executive Park,Nanuet,New York,845-425-4000,10954,,,,,,,,,
04/07/2022 12:00:00 AM,Allied Risk Management,1225 Franklin Avenue,Garden City,New York,516-992-3432,11530,,,,,,,,,
04/11/2022 12:00:00 AM,Gunderlin Ltd. Inc.,3625 E 11th Avenue,Hialeah,Florida,305-696-6071,33013,,,,,,,,,
04/11/2022 12:00:00 AM,Lippolis Electric Inc.,25 Seventh Street,Pelham,New York,914-738-3550,10803,,,,,,,,,
04/13/2022 12:00:00 AM,Atlantic Exterior Wall Systems LLC,25 Mansard Court,Wayne,New York,973-646-8200,07470,,,,,,,,,
04/19/2022 12:00:00 AM,AME Inc.,1275 Bloomfield Avenue,Fairfield,New Jersey,973-332-1303,07004,,,,,,,,,
04/19/2022 12:00:00 AM,Command HVAC II LLC,28 Park Avenue,Staten Island,New York,718-727-2416,10302,STATEN IS,501,40.63951,-74.130799,49,5023705,5010030031,20702,SI0106
04/21/2022 12:00:00 AM,Sergi's Images Inc.,260 Van Brunt Street,Brooklyn,New York,718-935-0002,11231,BROOKLYN,306,40.680335,-74.009414,38,3008288,3005170004,59,BK0601
04/22/2022 12:00:00 AM,300 Huntington Street LLC,155 3rd Street,Brooklyn,New York,212 -220-4117,11231,BROOKLYN,306,40.676493,-73.990915,39,,,77,BK0601
04/22/2022 12:00:00 AM,ComNet Communications,1 Park Ridge Road,Bethel,Connecticut,203-794-8055,06801,,,,,,,,,
04/22/2022 12:00:00 AM,"Concrete Structures, Inc.",960 Johnson Avenue,Ronkonkoma,New York,631-588-7613,11779,,,,,,,,,
04/22/2022 12:00:00 AM,"Dutchess Rebar Fabricators, LLC",1486 Route 55,LaGrangeville,New York,845-226-1655,12540,,,,,,,,,
04/22/2022 12:00:00 AM,Kulka LLC,175F Commerce Drive,Hauppauge,New York,631-231-0900,11788,,,,,,,,,
04/22/2022 12:00:00 AM,Monadnock Construction Inc.,155 3rd Street,Brooklyn,New York,718-875-8160,11231,BROOKLYN,306,40.676493,-73.990915,39,,,77,BK0601
04/22/2022 12:00:00 AM,"North American Elevator, Inc.",609 West Elizabeth Avenue,Linden,New Jersey,646-879-4887,07036,,,,,,,,,
04/25/2022 12:00:00 AM,"Specialty Lighting Group, LLC",74 Pickering Street,Portland,Connecticut,860-767-0110,06480,,,,,,,,,
04/25/2022 12:00:00 AM,Trex Commercial,7008 Northland Drive,Minneapolis,Minnesota,763-292-5535,55428,,,,,,,,,
04/26/2022 12:00:00 AM,"JRM Construction Management, LLC",22 West 38th Street,New York,New York,212-545-0500,10018,MANHATTAN,105,40.751355,-73.983683,4,1015973,1008390060,84,MN0502
04/27/2022 12:00:00 AM,Alexander's of Rego Park III Inc.,888 Seventh Avenue,New York,New York,212-894-7911,10019,MANHATTAN,105,40.765015,-73.980416,6,1024895,1010280029,137,MN0502
04/27/2022 12:00:00 AM,Team Electric Inc.,20 West 36th Street,New York,New York,212-685-8585,10018,MANHATTAN,105,40.75009,-73.984513,4,1015903,1008370058,84,MN0502
04/28/2022 12:00:00 AM,1682 Partners LLC,99 W Hawthorne Avenue,Valley Stream,New York,212-430-2190,11580,,,,,,,,,
04/28/2022 12:00:00 AM,580 Broadway LLC,580 Broadway c/o Ryan Fuld,New York,New York,917-410-8500,10012,MANHATTAN,102,40.724658,-73.997413,1,1007943,1005110006,43,MN0201
04/28/2022 12:00:00 AM,"Chrysler East Building, LLC",45 Rockefeller Plaza c/o Tishman Speyer,Rockefeller,New York,212-588-8624,10020,MANHATTAN,105,40.759204,-73.978335,4,1083860,1012660001,104,MN0502
04/29/2022 12:00:00 AM,1414 Holdings LLC,591 West Putnam Avenue,Greenwich,Connecticut,203-485-5162,06830,,,,,,,,,
04/29/2022 12:00:00 AM,Delta Sheet Metal LLC,55 Broad Street,New York,New York,212-243-2555,10004,MANHATTAN,101,40.705189,-74.011505,1,1000821,1000250001,9,MN0101
04/29/2022 12:00:00 AM,"Eastern Millwork, Inc.",143 Chapel Avenue,Jersey City,New Jersey,201-763-8028,07305,,,,,,,,,
04/29/2022 12:00:00 AM,"Petretti & Associates, LLC",270 Madison Avenue,New York,New York,917-560-2276,10016,MANHATTAN,105,40.751124,-73.980525,4,1017588,1008690016,82,MN0502
05/03/2022 12:00:00 AM,U.S. Gypsum Company,550 W. Adams Street,Chicago,Illinois,312-436-5883,60661,,,,,,,,,
05/05/2022 12:00:00 AM,"Automated Building Management Systems, Inc.",54 Cherry Lane,Floral Park,New York,516-352-2626,11001,QUEENS,,,,,,,,
05/05/2022 12:00:00 AM,City Wide Electrical,338 Flushing Avenue,Brooklyn,New York,718-506-2287,11205,BROOKLYN,303,40.698239,-73.961549,33,3334521,3018810033,191,BK0204
05/05/2022 12:00:00 AM,Facade 41 LLC,67 35th Street,Brooklyn,New York,212- 461-1725,11232,BROOKLYN,307,40.656695,-74.006815,38,3336900,3006870001,1802,BK0702
05/05/2022 12:00:00 AM,FQE Electric LLC,75 Huntington Street,Brooklyn,New York,718-437-7007,11231,BROOKLYN,306,40.677067,-74.003393,38,3008356,3005260031,59,BK0601
05/05/2022 12:00:00 AM,JGN Construction Corporation,66-40 69th Street,Queens,New York,718-894-5300,11379,QUEENS,405,40.713613,-73.886864,30,4437587,4027900014,65702,QN0504
05/05/2022 12:00:00 AM,On Target Sheetmetal Corp.,17 Devoe Street,Brooklyn,New York,718-388-4650,11211,BROOKLYN,301,40.713197,-73.950614,34,3338157,3027610053,513,BK0102
05/05/2022 12:00:00 AM,"Rotavele Elevator Brooklyn Construction, Inc.",414 Seneca Avenue,Queens,New York,718-386-6630,11385,QUEENS,405,40.706593,-73.914104,34,4081861,4034290029,545,QN0502
05/06/2022 12:00:00 AM,"L&L Painting Co., Inc.",900 South Oyster Bay Road,Hicksville,New York,516-349-1900,11801,,,,,,,,,
05/09/2022 12:00:00 AM,320 Park Avenue LLC,320 Park Avenue,New York,New York,202-737-1000,10022,MANHATTAN,105,40.75745,-73.973798,4,1035464,1012860035,102,MN0502
05/09/2022 12:00:00 AM,Mercon Plmbing Corp.,1616 Mermaid Avenue,Brooklyn,New York,917-662-4351,11224,BROOKLYN,313,40.576705,-73.983992,47,3189585,3070620006,326,BK1302
05/09/2022 12:00:00 AM,OZ Steel,236B 6th Street,Brooklyn,New York,347-995-5763,11215,BROOKLYN,306,40.672768,-73.988486,39,3330541,3009920005,11901,BK0601
05/10/2022 12:00:00 AM,490 Lower Unit LP,667 Madison Avenue,New York,New York,212-292-0216,10065,MANHATTAN,108,40.764613,-73.97024,4,1072007,1013750049,11401,MN0802
05/10/2022 12:00:00 AM,BBM Construction Corp,1751 56th Street,Brooklyn,New York,718-484-0625,11204,BROOKLYN,312,40.624976,-73.98603,44,3130750,3054900056,470,BK1202
05/10/2022 12:00:00 AM,Chab Six Realty LLC,PO Box 190541,Brooklyn,New York,718-633-0602,11219,BROOKLYN,,,,,,,,
05/10/2022 12:00:00 AM,"North Shore Neon Sign Co., Inc.",295 Skidmore Road,Deer Park,New York,631-667-2500,11729,,,,,,,,,
05/10/2022 12:00:00 AM,Precise Construction Contracting Inc,287 East 236th Street,Bronx,New York,718-652-6783,10470,BRONX,212,40.898195,-73.868124,11,2094783,2033770059,44902,BX1203
05/11/2022 12:00:00 AM,Bauer Structures Inc,3 WO Bauer Lane,Orangeburg,New York,917-650-4940,10962,,,,,,,,,
05/11/2022 12:00:00 AM,Chatsworth Builders LLC,1865 Palmer Avenue,Larchmont,New York,914-833-3000,10538,,,,,,,,,
05/11/2022 12:00:00 AM,DASR Corp,116 Wood Lane,Hauppauge,New York,631-553-2485,11788,,,,,,,,,
05/11/2022 12:00:00 AM,Empire Prospect LLC,1300 Tonnelle Avenue,North Bergen,New Jersey,201-294-1511,07047,,,,,,,,,
05/11/2022 12:00:00 AM,Finaly General Contracting Corp.,130 West 29th Street,New York,New York,212-760-0335,10001,MANHATTAN,105,40.747088,-73.991107,3,1015128,1008040057,95,MN0501
05/11/2022 12:00:00 AM,"Morris-Shea Bridge Co., Inc.",609 South 20th Street,Irondale,Alabama,205-956-9518,35210,,,,,,,,,
05/12/2022 12:00:00 AM,Soil Solutions Inc,110 Cherry Valley Avenue,West Hempstead,New York,516-292-6000,11552,,,,,,,,,
05/13/2022 12:00:00 AM,Alliance Security,318 West 39th Street,New York,New York,212-947-7800,10018,MANHATTAN,104,40.755657,-73.991976,3,1013650,1007620050,115,MN0402
05/13/2022 12:00:00 AM,Moore Group Corp.,1 Jefferson Place,Baldwin,New York,516-746-6300,11510,,,,,,,,,
05/13/2022 12:00:00 AM,Penava Mechanical Corp,5915 55th Seet,Maspeth,New York,718-628-1766,11378,,,,,,,,,
05/13/2022 12:00:00 AM,Walsh Glass & Metal,904 Nepperhan Avenue,Yonkers,New York,914-423-4300,10703,,,,,,,,,
05/16/2022 12:00:00 AM,Hailey Insulation Corp.,815 Route 25A,Rocky Point,New York,631-689-0450,11778,,,,,,,,,
05/16/2022 12:00:00 AM,Maragos Painting LLC,460 Valley Street,Orange,New Jersey,973-731-7179,07050,,,,,,,,,
05/17/2022 12:00:00 AM,Contractors Sheet metal LLC,34-06 Skillman Avenue,Long Island City,New York,718-786-2505,11101,QUEENS,402,40.746922,-73.930105,26,4003417,4002400001,17902,QN0202
05/19/2022 12:00:00 AM,2334 Coney Island Ave BRK LLC,777 South Figueroa Street,Los Angeles,California,646-745-6771,90017,,,,,,,,,
05/19/2022 12:00:00 AM,"P&D Electrical Solutions, Inc.",4288 Katonah Avenue,Bronx,New York,347-241-5413,10470,BRONX,212,40.898172,-73.867292,11,2019376,2033840010,45101,BX1203
05/19/2022 12:00:00 AM,"Spaces CNY, LLC",1440 Broadway,New York,New York,212-302-9060,10018,MANHATTAN,105,40.754611,-73.986761,4,1022563,1009930011,113,MN0502
05/20/2022 12:00:00 AM,DLS Mecanical Corp.,275 Jerico Turnpike,Floral Park,New York,718-777-0830,11001,QUEENS,,,,,,,,
05/20/2022 12:00:00 AM,Newgrange Construction Company,104 East 25th Street,New York,New York,212-682-2332,10010,MANHATTAN,105,40.741282,-73.984999,2,1018088,1008800084,68,MN0602
05/23/2022 12:00:00 AM,B&A Restoration,43 East Carl Street,Hicksville,New York,631-307-2009,11801,,,,,,,,,
05/24/2022 12:00:00 AM,UE Bruckner Plaza LLC,888 Seventh Avenue,New York,New York,201-571-3563,10019,MANHATTAN,105,40.765015,-73.980416,6,1024895,1010280029,137,MN0502
05/25/2022 12:00:00 AM,120 JV ACQ LLC,126 East 56th Street,New York,New York,212-554-5831,10028,MANHATTAN,105,40.760465,-73.970151,4,1081163,1013100063,100,MN0604
05/25/2022 12:00:00 AM,"BT Flooring Solutions, LLC",161 West 73rd Street,New York,New York,917-557-0697,10023,MANHATTAN,107,40.778797,-73.979932,6,1030008,1011450009,157,MN0701
05/25/2022 12:00:00 AM,Cauldwell Wingate Company LLC,380 Lexington Avenue,New York,New York,212-983-7150,10168,MANHATTAN,105,40.751036,-73.97636,4,1036152,1012960014,80,MN0603
05/25/2022 12:00:00 AM,"Park centennial Development LLC (Compass Point, LLC)",1721 Park Avenue,New York,New York,212-427-9800,10035,MANHATTAN,111,40.801957,-73.941273,9,1054376,1017690001,196,MN1102
05/25/2022 12:00:00 AM,Roosevelt 72 LLC,40-52 75th Street,Elmhurst,New York,718-899-7593,11373,QUEENS,404,40.745793,-73.890292,25,4036724,4014850051,267,QN0401
05/25/2022 12:00:00 AM,Scanga Woodworking Corp.,22 Corporate Park West,Cold Spring,New York,845-265-9115,10516,,,,,,,,,
05/25/2022 12:00:00 AM,Summit JV LLC,1721 Park Avenue,New York,New York,212-427-1800,10035,MANHATTAN,111,40.801957,-73.941273,9,1054376,1017690001,196,MN1102
05/26/2022 12:00:00 AM,2846 Partners LLC,1357 Huguenot Avenue,Staten Island,New York,718-689-9996,10312,STATEN IS,503,40.521319,-74.184153,51,5082331,5065390001,176,SI0304
05/26/2022 12:00:00 AM,"Construction Specialties, Inc.",3 Werner Way,Lebanon,New Jersey,570-584-6941,08833,,,,,,,,,
05/26/2022 12:00:00 AM,"River Street Partners, LLC",45 Main Street,Brooklyn,New York,718-222-2500,11201,BROOKLYN,302,40.702799,-73.990677,33,3329423,3000370001,21,BK0202
05/27/2022 12:00:00 AM,316 Kent Construction LLC,45 Main Street,Brooklyn,New York,718-222-2500,11201,BROOKLYN,302,40.702799,-73.990677,33,3329423,3000370001,21,BK0202
05/27/2022 12:00:00 AM,Henick-Lane Service Corp.,45-33 Davis Street,Long Island City,New York,718-786-7277,11101,QUEENS,402,40.744888,-73.94503,26,4000712,4000850021,1901,QN0201
05/31/2022 12:00:00 AM,"RXR Construction Services, LLC",625 RXR Plaza,Uniondale,New York,212-390-9600,11556,,,,,,,,,
05/31/2022 12:00:00 AM,STAT Fire Sprinkler Inc.,889 South 2nd Street,Ronkonkoma,New York,631-981-8000,11779,,,,,,,,,
06/01/2022 12:00:00 AM,AA 168 Construction LLC,61-15 184th Street,Fresh Meadows,New York,347-608-8785,11365,QUEENS,408,40.739264,-73.789945,24,4618169,4070730051,1341,QN0803
06/01/2022 12:00:00 AM,Cogen Electrical Services,175 City Island Avenue,Bronx,New York,718-991-4888,10464,BRONX,210,40.84294,-73.784893,13,2081927,2056260284,51601,BX1003
06/01/2022 12:00:00 AM,Genesis Fooring Systems LLC,252 West 37th Street,New York,New York,212-268-9550,10018,MANHATTAN,105,40.753514,-73.990728,3,1014452,1007860076,109,MN0502
06/01/2022 12:00:00 AM,Miller Blaker Inc.,620 East 132nd Street,Bronx,New York,718-665-0500,10454,BRONX,201,40.802366,-73.918986,8,2117310,2025430040,1903,BX0101
06/01/2022 12:00:00 AM,"Scientifix, LLC",2039 Briggs Rd,Mount Laurel,New Jersey,908-510-9579,08054,,,,,,,,,
06/03/2022 12:00:00 AM,DeFalco Construction Inc.,175 Walnut Avenue,Bronx,New York,718-618-7550,10454,BRONX,201,40.801396,-73.909918,8,2003993,2025870043,1903,BX0101
06/08/2022 12:00:00 AM,Ideal Supply Company,445 Communipaw Avenue,Jersey City,New Jersey,201-333-2600,07304,,,,,,,,,
06/08/2022 12:00:00 AM,"Ray Builders, Inc.",1270 Broadway,New York,New York,646-979-2830,10001,MANHATTAN,105,40.748655,-73.988097,4,1015858,1008340080,76,MN0501
06/08/2022 12:00:00 AM,Synergi LLC,7171 Dorsey Run Road,Elkridge,Maryland,800-784-5201,21075,,,,,,,,,
06/08/2022 12:00:00 AM,TLG Fulton LLC,1481 47th Street,Brooklyn,New York,718-705-6111,11219,BROOKLYN,312,40.633863,-73.987156,44,3137041,3056240046,234,BK1202
06/09/2022 12:00:00 AM,23 Brighton 11th Holdings LLC,137 Browning Avenue,Staten Island,New York,646-479-6699,10314,STATEN IS,502,40.599721,-74.118557,50,5023256,5009180170,181,SI0203
06/09/2022 12:00:00 AM,"A.D.E Systems, Inc.",150 Albany Avenue,Freeport,New York,516-568-6508,11520,,,,,,,,,
06/09/2022 12:00:00 AM,"G-Nado, Inc.",2906 Shell Road,Brooklyn,New York,917-803-8233,11224,BROOKLYN,313,40.58171,-73.975394,47,3196287,3072470260,348,BK1302
06/10/2022 12:00:00 AM,Aspro Plumbing Inc.,127-08 Merrick Boulevard,Jamaica,New York,718-977-3653,11434,QUEENS,412,40.681323,-73.764972,27,4270315,4125280105,33401,QN1204
06/14/2022 12:00:00 AM,1222 Realty Group LLC,2307 West 13th Street,Brooklyn,New York,917-417-8813,11223,BROOKLYN,313,40.590863,-73.983117,47,3194215,3071610074,382,BK1301
06/14/2022 12:00:00 AM,Emprise Construction Inc.,412 West 19 Street,New York,New York,212-608-5546,10011,MANHATTAN,104,40.744223,-74.003587,3,1078444,1007160017,89,MN0401
06/14/2022 12:00:00 AM,N-Tech Design of America,1648 East 14th Street,Brooklyn,New York,718-902-2920,11229,BROOKLYN,315,40.609258,-73.959335,48,3182387,3067760026,554,BK1501
06/14/2022 12:00:00 AM,Queens Logistics Center 1 LLC & Queens Logistics Center 2 LLC (Co-Applicant,One Meadowlands Plaza,East Rutherford,New Jersey,201-635-6034,07073,,,,,,,,,
06/15/2022 12:00:00 AM,"Island Painting, Inc.",5-21 47th road,Long Island City,New York,347-556-7155,11101,QUEENS,402,40.745191,-73.95538,26,4436582,4000290016,702,QN0201
06/16/2022 12:00:00 AM,Central Lathing Inc.,338 Jericho Tpke,Syosset,New Mexico,917-975-2911,11791,,,,,,,,,
06/17/2022 12:00:00 AM,"All State ELectrical Contracting, Inc.",44 N Central Avenue,Elmsford,New York,914-368-7802,10523,,,,,,,,,
06/17/2022 12:00:00 AM,Amerco Real Estate Company/U-Hall Construction Department,168-23 Douglas Avenue,Jamaica,New York,602-284-2705,11433,QUEENS,412,40.703867,-73.789991,27,4533759,4102170048,444,QN1201
06/17/2022 12:00:00 AM,"Hudson River Construction Company, LLC",26 Racquet Road,Newburg,New York,845-562-1350,12550,,,,,,,,,
06/17/2022 12:00:00 AM,POHL Metal Systems GmbH,Robert Bosch Strasse 6,Cologne,Alabama,492-221-7091,50769,,,,,,,,,
06/21/2022 12:00:00 AM,"242 Nevins, Inc.",3 Hill Pond Lane,Rumson,New Jersey,718-788-2222,07760,,,,,,,,,
06/21/2022 12:00:00 AM,Biordi Incorporated,43-20 102nd Street,Corona,New York,718-457-1222,11368,QUEENS,404,40.746974,-73.862772,21,4040536,4016190026,40701,QN0402
06/21/2022 12:00:00 AM,Concrete Industries One Corp.,300 Boulevard of the Americas,Lakewood,New Jersey,718-757-5003,08701,,,,,,,,,
06/21/2022 12:00:00 AM,Melrose Hotel LLC,87-21 144th Street,Queens,New York,917-627-5286,11435,QUEENS,408,40.706411,-73.81206,24,4207358,4097030007,232,QN0805
06/21/2022 12:00:00 AM,Urban Precast LLC,6 Kieffer Lane,Kingston,New York,845-331-6299,12401,,,,,,,,,
06/22/2022 12:00:00 AM,Empire City Iron Works,10-37 46th Road,Long Island City,New York,718-361-0100,11101,QUEENS,402,40.746008,-73.951979,26,4000385,4000480014,702,QN0201
06/24/2022 12:00:00 AM,American Standard Plumbing & Heating Corporation,62-49 30th Avenue,Woodside,New York,718-626-9507,11377,QUEENS,401,40.759778,-73.900163,22,4022508,4010160140,299,QN0171
06/24/2022 12:00:00 AM,Anchormen Construction LLC,1371-4 Church Street,Bohemia,New York,636-242-1102,11716,,,,,,,,,
06/24/2022 12:00:00 AM,Core Erectors dba Core Installation,350 West 31st Street,New York,New York,646-830-0711,10001,MANHATTAN,104,40.750893,-73.996286,3,1013539,1007540068,103,MN0401
06/24/2022 12:00:00 AM,"Reliant Electrical Contracting, Inc.",628 Classon Avenue,Brooklyn,New York,347-645-2202,11238,BROOKLYN,308,40.67852,-73.95877,35,3027740,3011330057,305,BK0802
06/24/2022 12:00:00 AM,"Safway Atlantic, LLC",700 Commercial Avenue,Carlstadt,New Jersey,201-636-5500,07072,,,,,,,,,
06/24/2022 12:00:00 AM,SNG Brick LLC,1119 38th Street,Brooklyn,New York,718-831-4027,11218,BROOKLYN,312,40.643338,-73.989251,39,3123025,3052910020,226,BK1202
06/24/2022 12:00:00 AM,Sunshine Brooklyn LLC,38-08 Union Street,Flushing,New York,718-888-1881,11354,QUEENS,407,40.761533,-73.827091,20,4607310,4049787502,871,QN0707
06/24/2022 12:00:00 AM,"Yates Restoration Group, Ltd.",36 Bruckner Blvd,Bronx,New York,718-993-5700,10464,BRONX,201,40.806962,-73.927806,8,2000684,2023080018,1901,BX0101
06/28/2022 12:00:00 AM,2700 Church Realty LLC,5308 13th Avenue,Brooklyn,New York,718-928-7536,11219,BROOKLYN,312,40.632675,-73.994581,44,3139018,3056690070,218,BK1202
06/28/2022 12:00:00 AM,2777 Arthur Kill LLC,100 Upton Street,Staten Island,New York,718-984-0170,10304,STATEN IS,502,40.599642,-74.096969,50,5022186,5008520109,17702,SI0203
06/28/2022 12:00:00 AM,51 W. Owner LP.,999 Waterside Drive,Norfolk,Virginia,212-378-7018,23510,,,,,,,,,
06/29/2022 12:00:00 AM,"Ace Wire and Cable Co., Inc.",72-01 51st Avenue,Woodside,New York,718-458-9200,11377,QUEENS,402,40.735916,-73.892246,26,4056408,4024420002,489,QN0203
06/29/2022 12:00:00 AM,"Allran Electric of NY, LLC",120 Broadway,New York,New York,212-269-5700,10271,MANHATTAN,101,40.708546,-74.011041,1,1001026,1000477501,7,MN0101
06/29/2022 12:00:00 AM,JPC Merger Sub LLC dba Jersey Precast,853 Nottingham Way,Hamilton Township,New Jersey,609-579-7819,08638,,,,,,,,,
06/29/2022 12:00:00 AM,"W5 Group, LLC",50 East Palisades Avenue,Englewood,New Jersey,201-541-0030,07631,,,,,,,,,
06/30/2022 12:00:00 AM,X-Cell Insulation Corporation,110 Keyland Court,Bohemia,New York,631-780-6601,11716,,,,,,,,,
07/06/2022 12:00:00 AM,FT 5402 LLC,2250 59th St,Brooklyn,New York,718-677-5641,11204,BROOKLYN,312,40.616602,-73.976731,44,3172048,3065480027,446,BK1204
07/06/2022 12:00:00 AM,L.E.B. Electic LTD,21 Seabro Avenue,Queens,New York,631-842-0500,11434,QUEENS,,,,,,,,
07/11/2022 12:00:00 AM,Dynamic Development and Construction LLC,1694 McDonald Avenue,Brooklyn,New York,347-260-0952,11230,BROOKLYN,311,40.611686,-73.973553,44,3327783,3065820055,440,BK1204
07/11/2022 12:00:00 AM,Horizon 80 RSD LLC,53 Broadway,Brooklyn,New York,718-388-8210,11249,BROOKLYN,301,40.710614,-73.966581,34,3413222,3024707501,549,BK0102
07/12/2022 12:00:00 AM,Harbour Mechanical Corporation,1332 Clinton Street,Hoboken,New Jersey,917-658-6526,07030,,,,,,,,,
07/12/2022 12:00:00 AM,Pancas International Inc.,275 West 231st Street,Bronx,New York,718-543-3364,10463,BRONX,208,40.880258,-73.907367,11,2083185,2057080110,289,BX0802
07/12/2022 12:00:00 AM,Panstar Realty LLC,275 West 231st Street,Bronx,New York,917-560-9022,10463,BRONX,208,40.880258,-73.907367,11,2083185,2057080110,289,BX0802
07/12/2022 12:00:00 AM,Patella Woodworking,99 South Street,Passaic,New Jersey,973-936-0100,07055,,,,,,,,,
07/13/2022 12:00:00 AM,"Empire Architectural Metal, Corp.",14-50 118 Street,College Point,New York,718-321-1697,11356,QUEENS,407,40.784524,-73.849463,19,4461917,4040690006,929,QN0701
07/13/2022 12:00:00 AM,HPHW Realty Corp.,37 Maple Avenue,Cedarhurst,New York,516-655-7431,11516,,,,,,,,,
07/13/2022 12:00:00 AM,"Tripple J&R, Inc",1247 51st St,Brooklyn,New York,718-676-2812,11219,BROOKLYN,312,40.634462,-73.994192,44,3138054,3056487501,220,BK1202
07/13/2022 12:00:00 AM,YNH Construction Inc.,205 Spencer Street,Brooklyn,New York,718-874-3741,11205,BROOKLYN,303,40.692036,-73.954658,33,3048989,3017630012,241,BK0301
07/14/2022 12:00:00 AM,3530 Webster LLC,161-10a Union Tpke,Flushing,New York,718-309-6777,11366,QUEENS,408,40.720921,-73.806049,24,,,1265,QN0802
07/14/2022 12:00:00 AM,Clune Construction Company,405 Lexington Avenue,New York,New York,646-569-3236,10174,MANHATTAN,106,40.751823,-73.97576,4,1036156,1012970023,92,MN0604
07/14/2022 12:00:00 AM,SS & BC,59 Crossway Drive,New York,New York,347-706-8772,11729,MANHATTAN,,,,,,,,
07/15/2022 12:00:00 AM,Connelly & Sons Plumbing & Heating,230 East Meadow Avenue,East Meadow,New York,516-794-7380,11554,,,,,,,,,
07/15/2022 12:00:00 AM,Red IronWorks Inc,98 Kean St,West Babylon,New York,516-233-4766,11704,,,,,,,,,
07/15/2022 12:00:00 AM,Unified Door and HArdware Group LLC,1650 Suckle Hwy,Pennsauken,New Jersey,856-320-4868,08110,,,,,,,,,
07/18/2022 12:00:00 AM,"E.W. Howell Co., LLC",245 Newtown Road,Plainview,New York,516-903-7100,11803,,,,,,,,,
07/18/2022 12:00:00 AM,Signature Bank,565 Fifth Ave,New York,New York,646-822-1402,10017,MANHATTAN,105,40.755883,-73.978506,4,1035402,1012820001,94,MN0502
07/19/2022 12:00:00 AM,"Skyline Windows, LLC.",220 East 138th Street,Bronx,New York,212-491-3000,10451,BRONX,201,40.812078,-73.928609,8,2097047,2023220081,51,BX0101
07/20/2022 12:00:00 AM,570 Fulton Street Property LLC,125 High Street,Boston,Massachusetts,917-328-4197,02110,,,,,,,,,
07/20/2022 12:00:00 AM,RXR-LBA Red Hook Court Street Owner LLC,75 Rockefeller Plaza,New York,New York,212-444-3770,10019,MANHATTAN,105,40.759764,-73.977901,4,1034512,1012670022,104,MN0502
07/22/2022 12:00:00 AM,1530 60th Member LLC,2250 59th St,Brooklyn,New York,718-677-5641,11204,BROOKLYN,312,40.616602,-73.976731,44,3172048,3065480027,446,BK1204
07/22/2022 12:00:00 AM,42-45 12th Street LLC,50 Bank Street,New York,New York,212-243-7757,10014,MANHATTAN,102,40.736864,-74.003475,3,1010946,1006140007,77,MN0203
07/22/2022 12:00:00 AM,Benfield Electric Supply Co. Inc.,240 Washington St,Mount Vernon,New York,914-948-6660,10553,,,,,,,,,
07/25/2022 12:00:00 AM,AB Stable V1 LLC,717 Fifth Avenue,New York,New York,646-690-1848,10022,MANHATTAN,105,40.762135,-73.974562,4,1035776,1012917501,102,MN0502
07/25/2022 12:00:00 AM,"FMB, Inc.",70 Supor Blvd,Harrison,New Jersey,973-485-5544,07029,,,,,,,,,
07/25/2022 12:00:00 AM,Metals USA Plates and Shapes Inc.,50 Carot Blvd East,Langhorne,Pennsylvania,267-580-2100,19047,,,,,,,,,
07/25/2022 12:00:00 AM,"Tri-State Computer Flooring Co., Inc.",17 Central Avenue,Hawthorne,New Jersey,201-394-6058,07506,,,,,,,,,
07/28/2022 12:00:00 AM,"Legere Group, Ltd",80 Darling Dr,Avon,Connecticut,860-674-0392,06001,,,,,,,,,
07/29/2022 12:00:00 AM,2995 Coney Island LLC,710 Avenue U,Brooklyn,New York,516-330-4388,11223,BROOKLYN,315,40.598003,-73.963868,48,3410005,3071340003,392,BK1501
07/29/2022 12:00:00 AM,815 Khy Group LLC,710 Avenue U,Brooklyn,New York,516-330-4388,11223,BROOKLYN,315,40.598003,-73.963868,48,3410005,3071340003,392,BK1501
07/29/2022 12:00:00 AM,Anfield Interiors,261 W 35 Street,New York,New York,646-208-9852,10001,MANHATTAN,105,40.752358,-73.991774,3,1014422,1007850007,109,MN0502
07/29/2022 12:00:00 AM,Gray Dawg Construction Services Inc.,508 78th Street,Brooklyn,New York,718-449-1930,11209,BROOKLYN,310,40.626942,-74.023074,47,3150399,3059710011,136,BK1001
07/29/2022 12:00:00 AM,"Modern Woodcrafts, LLC.",72 Northwest Drive,Plainville,Connecticut,860-677-7371,06062,,,,,,,,,
08/01/2022 12:00:00 AM,232 Seigel SPV LLC,1110 42nd Street,Brooklyn,New York,718-309-3623,11219,BROOKLYN,312,40.641401,-73.99212,44,3334045,3055977501,224,BK1202
08/01/2022 12:00:00 AM,"Cardella Trucking Co, Inc.",2400 Tonnelle Ave,North Bergen,New Jersey,201-867-7276,07047,,,,,,,,,
08/01/2022 12:00:00 AM,"JEM Architecturals, Inc",37 Cliff Street,New Rochelle,New York,914-365-1500,10801,,,,,,,,,
08/01/2022 12:00:00 AM,MG & Company,350 7th Avenue,New York,New York,212-691-4000,10001,MANHATTAN,105,40.748164,-73.992695,3,1014290,1007790039,95,MN0501
08/01/2022 12:00:00 AM,"New York H & Y Construction, Inc.",46-22 Robinson Street,Flushing,New York,929-990-3392,11355,QUEENS,407,40.751389,-73.816864,20,4533994,4052090013,1205,QN0705
08/02/2022 12:00:00 AM,1308 Real Estate LLC,175 West Carver St,Huntington,New York,212-317-1249,11743,,,,,,,,,
08/02/2022 12:00:00 AM,19-20 Bush Terminal Owner LP,220 36th Street,Brooklyn,New York,347-417-8467,11232,BROOKLYN,307,40.656061,-74.007334,38,3398687,3006950020,2,BK0702
08/02/2022 12:00:00 AM,3551 Boston Associates LLC,70-13 Austin Street,Queens,New York,718-575-5400,11375,QUEENS,406,40.720798,-73.846501,29,4314650,4032387504,711,QN0602
08/02/2022 12:00:00 AM,BH Design Group LLC,97-10 62nd Drive,Queens,New York,718-536-7383,11374,QUEENS,406,40.732581,-73.861257,24,4431951,4020860050,71701,QN0601
08/02/2022 12:00:00 AM,Canatal Steel USA Inc.,459 Industrial Drive,Roanoke,Virginia,418-338-6044,24019,,,,,,,,,
08/02/2022 12:00:00 AM,Electrotech Service Equipment Corp,24-50 46th Street,Long Island City,New York,718-626-7700,11103,QUEENS,401,40.766618,-73.906189,22,4441097,4007180018,141,QN0104
08/02/2022 12:00:00 AM,"Facade Solutions New York, LLC",26 Oliver Street,New York,New York,917-364-4368,10006,MANHATTAN,103,40.712285,-73.997847,1,1000000,1002790030,27,MN0301
08/02/2022 12:00:00 AM,Reliable Plumbing NYC Corp,533 Lincoln Ave,Staten Island,New York,917-731-2190,10306,STATEN IS,502,40.572327,-74.095464,50,,,11203,SI0202
08/03/2022 12:00:00 AM,210 Greenpoint Realty LLC,84 Kosciuszko Street,Brooklyn,New York,718-963-0536,11205,BROOKLYN,303,40.690523,-73.952192,36,3049730,3017830047,241,BK0301
08/03/2022 12:00:00 AM,401 W 207th Realty LLC,84 Kosciuszko Street,Brooklyn,New York,718-963-0536,11205,BROOKLYN,303,40.690523,-73.952192,36,3049730,3017830047,241,BK0301
08/03/2022 12:00:00 AM,Interior Builders Group Inc. (IBG) of New York,32 Broadway,New York,New York,212-732-1466,10004,MANHATTAN,101,40.706045,-74.013096,1,1078979,1000220017,9,MN0101
08/03/2022 12:00:00 AM,NYCOM,606 Church Street,Morriseville,New York,919-605-3979,27560,,,,,,,,,
08/03/2022 12:00:00 AM,Spring Roc LLC,265 Sunrise Highway,Rockeville Centre,New York,212-575-5955,11570,,,,,,,,,
08/04/2022 12:00:00 AM,Grand Lake Holdings Corp,82-11 57 Street,Elmhurst,New York,917-618-3139,11373,QUEENS,,,,,,,,
08/04/2022 12:00:00 AM,L2 Construction Inc.,774 53rd Street,Brooklyn,New York,917-385-9655,11220,BROOKLYN,307,40.639856,-74.006172,43,3014437,3008180038,10601,BK0703
08/04/2022 12:00:00 AM,"MC Electrical NY, Inc.",157 Walsh Road,Yonkers,New York,914-623-7100,10701,,,,,,,,,
08/04/2022 12:00:00 AM,Vinbaytel Developments LLC,41 Avenue A,New York,New York,718-986-9086,10009,MANHATTAN,103,40.723568,-73.985356,2,1077953,1004300010,3002,MN0303
08/05/2022 12:00:00 AM,BV Mechanical LLC,157 Midgely Drive,Hewlett,New York,917-599-7237,11557,,,,,,,,,
08/05/2022 12:00:00 AM,Electric Essentials Corp.,32 East 31st Street,New York,New York,212-725-1098,10016,MANHATTAN,105,40.745729,-73.984052,2,1016970,1008600055,74,MN0501
08/05/2022 12:00:00 AM,GCH Fordham Road,19 West 34th Street,New York,New York,212-760-3565,10001,MANHATTAN,105,40.74899,-73.985845,4,1015873,1008360020,76,MN0501
08/05/2022 12:00:00 AM,Vertiv Corporation,1 Penn Plaza,New York,New York,614-841-5801,10119,MANHATTAN,105,40.751098,-73.992926,3,1014387,1007830070,101,MN0501
08/09/2022 12:00:00 AM,"J.G. Electrical Installations, Inc.",66-05 60th Place,Ridgewood,New York,718-381-4900,11385,QUEENS,405,40.708164,-73.90133,30,4084809,4035270010,587,QN0502
08/09/2022 12:00:00 AM,"James E. Fitzgerald, Inc.",48 West 38th Street,New York,New York,212-921-8700,10018,MANHATTAN,105,40.751611,-73.984293,4,1015982,1008390073,84,MN0502
08/11/2022 12:00:00 AM,1504-1506 Avenue L LLC,3839 Flatlands Ave,Brooklyn,New York,718-567-4922,11234,BROOKLYN,318,40.620891,-73.935899,45,3217186,3078170006,738,BK1801
08/11/2022 12:00:00 AM,Clearview SM Inc.,199 Bush Street,Brooklyn,New York,917-731-4331,11231,BROOKLYN,306,40.673573,-74.001337,38,3008571,3005620046,5302,BK0601
08/11/2022 12:00:00 AM,"Donaldson Interiors, Inc.",150 Wireless Boulevard,Hauppauge,New York,631-952-0800,11788,,,,,,,,,
08/11/2022 12:00:00 AM,"Mistral Architectural Metal & Glass, Inc.",37-19 56th Street,Woodside,New York,718-721-2150,11377,QUEENS,402,40.750262,-73.906263,26,4027653,4012110054,257,QN0203
08/11/2022 12:00:00 AM,Skyline Builders Corp. LLC,4403 15th Ave,Brooklyn,New York,718-925-2250,11219,BROOKLYN,312,40.635071,-73.984886,44,3128289,3054310009,232,BK1202
08/15/2022 12:00:00 AM,Rodney Corporation,555 Madison Ave,New York,New York,212-755-5300,10022,MANHATTAN,105,40.761177,-73.973161,4,1035775,1012917502,102,MN0502
08/16/2022 12:00:00 AM,Alba Services Inc,240 W 52nd St,New York,New York,917-217-0459,10019,MANHATTAN,105,40.762999,-73.983922,3,1080862,1010230053,131,MN0502
08/16/2022 12:00:00 AM,Greenpoint Fireproofing & Insulation Inc,31-00 47th Ave,Long Island City,New York,212-867-7588,11101,QUEENS,402,40.74306,-73.935652,26,4003539,4002810001,19902,QN0202
08/16/2022 12:00:00 AM,Regulator Construction,441 Old Nepperhan Ave,Yonkers,New York,917-913-5525,10703,,,,,,,,,
08/17/2022 12:00:00 AM,Nova Concrete Contractors Inc.,39 Barretts Avenue,Holtsville,New York,631-242-4024,11742,,,,,,,,,
08/18/2022 12:00:00 AM,Good Will Mechanical Corp.,1000 Grand Street,Brooklyn,New York,718-486-9000,11211,BROOKLYN,301,40.713214,-73.935421,34,3070764,3030190035,485,BK0104
08/19/2022 12:00:00 AM,1333 Broadway LLC,1333 Broadway,Brooklyn,New York,212-736-4492,11221,BROOKLYN,304,40.690065,-73.923046,37,3076057,3033210152,397,BK0402
08/19/2022 12:00:00 AM,"Baring Industries, Inc.",3249 S.W. 42 St,Fort Lauderdale,Florida,954-327-6700,33312,,,,,,,,,
08/19/2022 12:00:00 AM,E&T Skyline Construction LLC,488 Madison Avenue,New York,New York,212-977-3734,10022,MANHATTAN,105,40.758888,-73.974855,4,1035470,1012870014,102,MN0502
08/19/2022 12:00:00 AM,Empire State Electrical,444 Coney Island Avenue,Brooklyn,New York,917-620-3289,11218,BROOKLYN,312,40.647071,-73.971056,40,3124429,3053310065,50402,BK1203
08/25/2022 12:00:00 AM,M&L Mechanical of NY,92 Terry Road,Smithtown,New York,631-265-6814,11787,,,,,,,,,
08/26/2022 12:00:00 AM,Melto Metal Products Co. Inc.,37 Hanse Ave,Freeport,New York,516-546-8866,11520,,,,,,,,,
08/26/2022 12:00:00 AM,Midre Contracting Corp.,60-01 Northern Blvd,Woodside,New York,718-896-4266,11377,QUEENS,401,40.753826,-73.901988,25,4026171,4011610089,297,QN0104
08/29/2022 12:00:00 AM,"WF Industrial X, LLC",80 8thh Avenue,New York,New York,310-490-0526,10011,,,,,,,,,
08/30/2022 12:00:00 AM,East-End Concrete Industries Inc.,948 Old Medford Ave,Medford,New York,631-716-2301,11763,,,,,,,,,
09/01/2022 12:00:00 AM,Newport Designs Corp.,235 Watchung Ave,West Orange,New Jersey,718-210-4140,07052,,,,,,,,,
09/07/2022 12:00:00 AM,Cooper Electric Supply Company,1 Matrix Drive,Monroe,New Jersey,631-871-5466,08831,,,,,,,,,
09/07/2022 12:00:00 AM,"Schlage Lock Company, LLC",11819 North Pennsylvania,Carmel,Indiana,480-493-8726,46032,,,,,,,,,
09/07/2022 12:00:00 AM,Unitec Elevator Company,36-36 33rd St,Long Island City,New York,347-592-1555,11106,QUEENS,401,40.755141,-73.928728,26,4007923,4006010001,55,QN0105
09/08/2022 12:00:00 AM,"Kone, Inc",47-36 36th Street,Long Island City,New York,309-912-5300,11101,QUEENS,402,40.741588,-73.929461,26,4003273,4002300001,189,QN0202
09/08/2022 12:00:00 AM,"Rael Automatic Sprinkler Company, Inc.",601 Merrick Road,Lynbrook,New York,516-593-2000,11563,,,,,,,,,
09/12/2022 12:00:00 AM,"Kleinknecht Electric Company, Inc.",19 W 44th Street,New York,New York,212-728-1898,10036,MANHATTAN,105,40.755167,-73.98083,4,1034224,1012600024,96,MN0502
09/13/2022 12:00:00 AM,Custom Metal & Glass,60 Herbert Ave,Closter,New Jersey,347-270-0944,07624,,,,,,,,,
09/13/2022 12:00:00 AM,"SC-Starr Ave, LLC",460 Inca Boulevard,Culver City,California,718-906-2042,90232,,,,,,,,,
09/13/2022 12:00:00 AM,"Silvercup Studios NY, LLC",460 Inca Boulevard,Long Island City,New York,718-206-2042,11101,QUEENS,,,,,,,,
09/14/2022 12:00:00 AM,"Add Mechanical, Inc.",134 Evergreen,Brooklyn,New York,718-602-2680,11206,BROOKLYN,,,,,,,,
09/14/2022 12:00:00 AM,H&L Ornamental Ironworks,102 West 38th Street,New York,New York,646-882-0381,10018,MANHATTAN,105,40.752426,-73.986227,4,1015260,1008130040,109,MN0502
09/14/2022 12:00:00 AM,"Marine Bulkheading, Inc.",3512 Bay Court,Seaford,New York,516-785-7557,11783,,,,,,,,,
09/14/2022 12:00:00 AM,Schindler Elevator Corporation,620 Twelfth Avenue,New York,New York,973-397-6500,10036,MANHATTAN,104,40.765047,-73.998043,3,1027118,1010950011,12902,MN0402
09/15/2022 12:00:00 AM,Tristate Fire Sprinklers,1237 39th Street,Brooklyn,New York,718-237-1100,11218,BROOKLYN,312,40.64142,-73.98759,39,3123154,3052940058,226,BK1202
09/20/2022 12:00:00 AM,Park 53rd Owner LLC,1450 Broadway,New York,New York,212-944-2510,10018,MANHATTAN,105,40.754927,-73.98666,4,1022568,1009930047,113,MN0502
09/21/2022 12:00:00 AM,203 Street North LLC,450 West 14th Street,New York,New York,212-620-0500,10014,MANHATTAN,102,40.74184,-74.007503,3,1012223,1006467502,79,MN0203
09/21/2022 12:00:00 AM,2-6 East Tremont Avenue LLC,450 West 14th Street,New York,New York,212-620-0500,10014,MANHATTAN,102,40.74184,-74.007503,3,1012223,1006467502,79,MN0203
09/21/2022 12:00:00 AM,Bolivar Builders LLC,450 West 14th Street,New York,New York,212-620-0500,10014,MANHATTAN,102,40.74184,-74.007503,3,1012223,1006467502,79,MN0203
09/21/2022 12:00:00 AM,TK Elevator Corporation,1407 Broadway Ave,New York,New York,647-436-3659,10016,MANHATTAN,105,40.753439,-73.987151,3,1015265,1008140015,113,MN0502
09/22/2022 12:00:00 AM,69 Adams LLC,505 Flushing Ave,Brooklyn,New York,718-246-4762,11205,BROOKLYN,301,40.699238,-73.954866,33,3396777,3022637508,53102,BK0103
09/22/2022 12:00:00 AM,Casino Plumbing,485 Cliff St,Fairview,New Jersey,201-945-5395,07022,,,,,,,,,
09/22/2022 12:00:00 AM,Far Rockaway Equities LLC,1300 Tonnelle Ave,North Bergen,New Jersey,201-294-1511,07047,,,,,,,,,
09/22/2022 12:00:00 AM,"TRV Mechanical Contractors, LLC",217 Market Street,Kenilworth,New York,908-241-6111,07033,,,,,,,,,
09/22/2022 12:00:00 AM,WWI Contracting Corp,2824 Steinway Street,Queens,New York,201-849-5728,11103,QUEENS,401,40.765224,-73.913924,22,4010760,4006620030,6502,QN0103
09/23/2022 12:00:00 AM,Adria Infrastructure LLC,58-22 Maspeth Ave,Maspeth,New York,718-326-7823,11378,QUEENS,405,40.72304,-73.911312,30,4059790,4026720085,531,QN0501
09/23/2022 12:00:00 AM,Mongiardo Studio Inc.,6 Nolan Dr,Barrington,Massachusetts,413-528-1511,01230,,,,,,,,,
09/26/2022 12:00:00 AM,"94th Avenue Hospitality, LLC",183-30 Jamaica Avemie,Queens,New York,718-454-0800,11423,QUEENS,,,,,,,,
09/27/2022 12:00:00 AM,Cross Management Corp,8 East 40th Street,New York,New York,212-922-1110,10016,MANHATTAN,105,40.751931,-73.981214,4,1017601,1008690066,82,MN0502
09/29/2022 12:00:00 AM,40th Road Realty Group LLC,420 Great Neck Rod,Great Neck,New York,718-353-8898,11021,,,,,,,,,
09/29/2022 12:00:00 AM,Pacific Rim LLC,140-37 Cherry Avenue,Queens,New York,718-353-8898,11355,QUEENS,407,40.754187,-73.82235,20,4533766,4051867502,859,QN0707
10/03/2022 12:00:00 AM,"Sunnyside Studios Owner, LLC",34 East 51st Street,New York,New York,917-281-0338,10022,MANHATTAN,105,40.758303,-73.974722,4,1090748,1012860043,102,MN0502
10/04/2022 12:00:00 AM,Readington Iron Works LLC,101 Industrial East,Clifton,New Jersey,201-528-7517,07012,,,,,,,,,
10/05/2022 12:00:00 AM,Forest Electric Corp,1375 Broadway,New York,New York,212-318-1500,10018,MANHATTAN,105,40.752328,-73.987461,3,1015254,1008130016,109,MN0502
10/05/2022 12:00:00 AM,"Siteline Interior Carpentry, Inc.",25 East Washington,Chicago,Illinois,312-258-6750,60602,,,,,,,,,
10/06/2022 12:00:00 AM,Tony Casale Inc.,1185 Saw Mill River Road,New York,New York,914-375-2177,10503,MANHATTAN,,,,,,,,
10/06/2022 12:00:00 AM,Woodworks Construction,322 8th Ave,New York,New York,212-888-7311,10001,MANHATTAN,105,40.747294,-73.997023,3,1014225,1007760001,95,MN0501
10/07/2022 12:00:00 AM,Premium Millwork Inc,43 Coffey Street,Brooklyn,New York,718-422-7774,11213,BROOKLYN,306,40.674656,-74.011835,38,3008822,3005990014,5301,BK0601
10/11/2022 12:00:00 AM,Thomboy Facilities LLC,539 Eastern PArkway,Brooklyn,New York,718-703-8403,11216,BROOKLYN,308,40.669851,-73.950084,35,3032652,3012620001,31702,BK0802
10/17/2022 12:00:00 AM,"Icon Interiors, Inc.",307 Seventh Ave,New York,New York,212-675-9180,10001,MANHATTAN,105,40.746869,-73.993616,3,1015061,1008030004,95,MN0501
10/19/2022 12:00:00 AM,836 Broadway PArtners LLC,1450 Broadway Ave,New York,New York,212-944-2510,10018,MANHATTAN,105,40.754927,-73.98666,4,1022568,1009930047,113,MN0502
10/20/2022 12:00:00 AM,Champion Combustion,850 Elbe Ave,Staten Island,New York,718-815-8800,10304,STATEN IS,502,40.605015,-74.085395,50,5046269,5031580044,50,SI0201
10/20/2022 12:00:00 AM,Drex Corporation,34-02 Laurel Hill Blvd,MAspeth,New York,718-361-0496,11378,QUEENS,402,40.729175,-73.930838,26,4058805,4025200006,19902,QN0202
10/24/2022 12:00:00 AM,Unity Electric Co. Inc,65-45 Fresh Meadow Lane,Flushing,New York,718-539-4300,11365,QUEENS,408,40.735339,-73.794698,24,4149397,4069160010,1341,QN0803
10/25/2022 12:00:00 AM,Intsel Steel East,560 North Washington Ave,Bridgeport,Connecticut,475-236-6123,06604,,,,,,,,,
10/25/2022 12:00:00 AM,"Park Avenue Building and Roofing Supplies, LLC",2120 Atlantic Avenue,Brooklyn,New York,718-403-0100,11233,BROOKLYN,316,40.676661,-73.916929,41,3391027,3014320028,303,BK1601
10/26/2022 12:00:00 AM,82C LLC,249 Smith St,Brooklyn,New York,347-925-0909,11231,BROOKLYN,306,40.683311,-73.992767,39,3006697,3004150008,75,BK0601
10/26/2022 12:00:00 AM,"Flag Waterproofing & Restoration., Co.",10-40 Borden Ave,Long Island City,New York,718-784-8100,11101,QUEENS,402,40.741137,-73.953477,26,4000207,4000370025,104,QN0201
10/27/2022 12:00:00 AM,"Nouveau Elevator Industries, Inc.",47-55 37 Sttreet,Long Island City,New York,718-349-4770,11101,QUEENS,,,,,,,,
10/28/2022 12:00:00 AM,Church Ave Capital LLC,1300 Tonnelle ave,North bergen,New Jersey,201-314-6746,07047,,,,,,,,,
10/31/2022 12:00:00 AM,Neptune,29-10 120th,Flushing,New York,718-886-5059,11354,QUEENS,,,,,,,,
11/02/2022 12:00:00 AM,"E. E. Cruz & Co., Inc.",16-16 Whitestone Expressway,Whitestone,New York,212-431-3993,11357,QUEENS,407,40.784553,-73.82497,19,4617513,4041480065,945,QN0701
11/02/2022 12:00:00 AM,Pinnacle Alliance,4014 East Tremont Avenue,Bronx,New York,917-581-1882,10465,BRONX,210,40.820007,-73.817817,13,2080457,2055760092,132,BX1002
11/02/2022 12:00:00 AM,"PPF Industrial 27-11 49th Ave, LLC",1585 Broadway,New York,New York,212-761-4468,10036,MANHATTAN,105,40.760216,-73.985334,3,1076193,1010197502,125,MN0502
11/03/2022 12:00:00 AM,1 Holland LLC,1590 Troy Avenue,Brooklyn,New York,718-252-0126,11234,BROOKLYN,318,40.633425,-73.934252,45,3213364,3077270017,726,BK1801
11/03/2022 12:00:00 AM,"Carrier Enterprise Northeast, LLC.",240 West 35th St,New York,New York,973-276-2744,10001,MANHATTAN,105,40.752171,-73.991377,3,1014415,1007840064,109,MN0502
11/03/2022 12:00:00 AM,JDR Mechanical Corp,1163 Willis Ave,Albertson,New York,516-742-1289,11507,,,,,,,,,
11/03/2022 12:00:00 AM,Metal Men Mechanicals,103-21 98th Street,Ozone Park,New York,917-750-5972,11417,QUEENS,410,40.682679,-73.84219,32,4189681,4091210070,4002,QN1002
11/04/2022 12:00:00 AM,"Jantile, Inc.",100 Business Park Drive,Armonk,New York,718-665-5450,10504,,,,,,,,,
11/09/2022 12:00:00 AM,Rose Mechanical,1565 Ocean Ave,Bohemia,New York,631-750-6271,11716,,,,,,,,,
11/09/2022 12:00:00 AM,Rose Railings Inc,1230 Cellar Avenue,Clark,New Jersey,973-494-0200,07066,,,,,,,,,
11/09/2022 12:00:00 AM,"Securitas Electronic Security, Inc.",3 Westchester Plaza,Elmsford,New York,914-872-4301,10523,,,,,,,,,
11/10/2022 12:00:00 AM,Aish Mechanical Corp dba Tristate Fire Sprinkler,1237 39th St,Brooklyn,New York,718-237-1100,11218,BROOKLYN,312,40.64142,-73.98759,39,3123154,3052940058,226,BK1202
11/10/2022 12:00:00 AM,Berardi Stone Setting,300 Hamilton Avenue,White Plains,New York,914-644-8444,10601,,,,,,,,,
11/10/2022 12:00:00 AM,"Consolidated Flooring, LLC",16 West 22nd St,New York,New York,201-806-1387,10010,MANHATTAN,105,40.741214,-73.990884,3,1015531,1008230029,58,MN0501
11/14/2022 12:00:00 AM,1769 Brooklyn LLC,1769 86th Street,Brooklyn,New York,646-206-8356,11221,BROOKLYN,311,40.60753,-74.003083,38,3165744,3063430050,178,BK1102
11/14/2022 12:00:00 AM,"Dalan Management & Associates, Inc.",134 West 125th Street,New York,New York,607-208-8288,10001,MANHATTAN,110,40.808462,-73.947137,9,1057820,1019090012,222,MN1001
11/14/2022 12:00:00 AM,Manhattan Concrete,511 Canal Street,New York,New York,212-235-2017,10013,MANHATTAN,102,40.724425,-74.008915,1,1010287,1005940008,37,MN0201
11/14/2022 12:00:00 AM,Mckeon Door East,44 Sawgrass Dr,New York,New York,631-803-3000,11713,MANHATTAN,,,,,,,,
11/14/2022 12:00:00 AM,"TEC Building Systems, LLC",47-25 34th Street,Long Island City,New York,718-247-2100,11101,QUEENS,402,40.741954,-73.931265,26,4003445,4002500001,19901,QN0202
11/14/2022 12:00:00 AM,United Brothers Pro Construction Corp,3330 De LaValle Ave,Bronx,New York,718-882-0218,10475,BRONX,,,,,,,,
11/15/2022 12:00:00 AM,Albireo Energy,3 Ethel Roade,Edison,New Jersey,732-243-4843,08817,,,,,,,,,
11/15/2022 12:00:00 AM,Barone Steel Fabricators Inc,128 44th Street,Brooklyn,New York,718-832-4705,11232,BROOKLYN,307,40.65331,-74.014866,38,3320138,3007350050,1803,BK0702
11/15/2022 12:00:00 AM,Sandstone Structures LLC,2050 Center Ave,Fort Lee,New Jersey,718-521-4622,07024,,,,,,,,,
11/16/2022 12:00:00 AM,Cong Beth Aron Visrael Karlin Stolin Inc.,4609 16th Ave,Brooklyn,New York,718-643-1658,11204,BROOKLYN,312,40.632598,-73.983874,44,3000000,3054370106,476,BK1202
11/16/2022 12:00:00 AM,New York Verified Interior Corp.,829 East 15th St,Brooklyn,New York,718-208-1717,11230,BROOKLYN,314,40.629381,-73.962183,45,3179372,3066990076,532,BK1403
11/16/2022 12:00:00 AM,"R&R Scaffolding, Ltd.",235 Moonachie Rd,Moonachie,New Jersey,201-438-3020,07074,,,,,,,,,
11/17/2022 12:00:00 AM,"11  M.S.N, LLC",15 East 26th Street,New York,New York,212-847-3748,10010,MANHATTAN,105,40.743119,-73.987387,3,1016877,1008567503,56,MN0501
11/22/2022 12:00:00 AM,245 Park Avenue Property LLC,c/o SL Green Realty Corp. One Vanderbuilt Avenue,New York,New York,212-594-2799,10017,MANHATTAN,,,,,,,,
11/22/2022 12:00:00 AM,AMR Electrical Contracting Corp.,315 Jackson Avenue,Bronx,New York,718-902-2263,10454,BRONX,201,40.806794,-73.911767,8,2092958,2025680063,2702,BX0101
11/22/2022 12:00:00 AM,Noble Construction Group,1 Harmon Plaza,Secaucus,New Jersey,201-770-1120,07094,,,,,,,,,
11/22/2022 12:00:00 AM,Techno Acoustics Holdings LLC,58-85 57th Street,Maspeth,New York,917-440-9189,11378,QUEENS,405,40.71824,-73.911914,30,4533732,4026220113,53501,QN0501
11/22/2022 12:00:00 AM,Wesbuilt Construction Managers LLC,31 East 3nd Street,New York,New York,212-410-0270,10016,MANHATTAN,,,,,,,,
11/23/2022 12:00:00 AM,Highbury Concrete Inc.,53-19 46th Street,Flushing,New York,718-424-4423,11378,QUEENS,402,40.732155,-73.92159,26,4521014,4025440001,205,QN0202
11/30/2022 12:00:00 AM,American National Insulation Inc.,115 N. Gold Drive,Robbinsville,New Jersey,386-304-2222,08691,,,,,,,,,
11/30/2022 12:00:00 AM,"Gotham Drywall, Inc.",31-00 47th Ave,Long Island City,New York,212-867-7580,11101,QUEENS,402,40.74306,-73.935652,26,4003539,4002810001,19902,QN0202
11/30/2022 12:00:00 AM,Rolando Mechanical of NY Corp.,24-15 45th Street,Astoria,New York,718-606-1282,11103,QUEENS,401,40.767562,-73.906505,22,4012872,4007180030,141,QN0104
11/30/2022 12:00:00 AM,"Sigma Electric, Inc",52-32 83rd Street,Elmhurst,New York,718-545-1619,11373,QUEENS,404,40.732842,-73.883826,30,4066050,4029030018,499,QN0401
12/02/2022 12:00:00 AM,National Elevator Cab & Door Corp.,63 Flushing Avenue,Brooklyn,New York,718-478-5900,11205,BROOKLYN,302,40.69802,-73.974986,33,3335129,3020230001,543,BK0261
12/05/2022 12:00:00 AM,Berkowitz Realty LLC,670 Flushing Avenue,Brooklyn,New York,347-663-1152,11206,BROOKLYN,303,40.70025,-73.945932,36,3048321,3017220016,257,BK0301
12/05/2022 12:00:00 AM,"Component Assemby Systems, Inc.",620 Fifth Avenue,Pelham,New York,914-738-5400,10803,,,,,,,,,
12/05/2022 12:00:00 AM,Tournesol Siteworks,2930 Faber Street,Union City,California,800-542-2282,94587,,,,,,,,,
12/05/2022 12:00:00 AM,ZBL 66t street LLC,1463 66th Street,Brooklyn,New York,347-663-1152,11219,BROOKLYN,311,40.623335,-73.99875,43,,,190,BK1101
12/06/2022 12:00:00 AM,"Construction Resource Services, LLC","8200 Boyle Parkway,",Twinsburg,Ohio,330-486-3471,44087,,,,,,,,,
12/06/2022 12:00:00 AM,"Precast Services, Inc.",8200 Boyle Parkway,Twinsburg,Ohio,610-901-3207,44087,,,,,,,,,
12/07/2022 12:00:00 AM,1730 Bedford Realty LLC,1820 Avenue M,Brooklyn,New York,718-703-7004,11230,BROOKLYN,314,40.618372,-73.956667,44,3181078,3067470007,538,BK1403
12/07/2022 12:00:00 AM,GDI Construction LLC,15 Verbena Avenue,Floral Park,New York,516-821-2004,11001,QUEENS,,,,,,,,
12/07/2022 12:00:00 AM,Grand Concourse Fordam LLC,15 Verbena Avenue,Floral Park,New York,516-821-2065,11001,QUEENS,,,,,,,,
12/08/2022 12:00:00 AM,Trane,10-27 46th Avenue,Long island City,New York,718-269-3600,11101,QUEENS,402,40.74673,-73.951921,26,4000398,4000490010,702,QN0201
12/16/2022 12:00:00 AM,Advent Industrial Corporation,1 Hazen Lane,Carmel,New York,845-225-6164,10512,,,,,,,,,
12/16/2022 12:00:00 AM,"Centennial Elevator Industries, Inc.",24-35 47th Street,Astoria,New York,718-726-5900,11103,QUEENS,401,40.766425,-73.905218,22,4539948,4007330029,141,QN0104
12/16/2022 12:00:00 AM,Jingang Northern LLC,138-18 Northern Blvd,Queens,New York,718-349-6600,11354,QUEENS,407,40.764043,-73.827561,20,4113291,4050100028,865,QN0707
12/16/2022 12:00:00 AM,Manhattan Constructors LLC,282 Hudson Street,New York,New York,917-693-5252,10013,MANHATTAN,102,40.725402,-74.007623,1,1009735,1005790001,37,MN0201
12/19/2022 12:00:00 AM,Chesakl Enterprises inc.,3099 Cropsey Avenue,Brooklyn,New York,917-821-5118,11224,BROOKLYN,313,40.579785,-73.985474,47,3329313,3069950017,348,BK1302
12/19/2022 12:00:00 AM,Frontal Enterprises LLC,3099 Cropsey Avenue,Brooklyn,New York,917-821-5118,11224,BROOKLYN,313,40.579785,-73.985474,47,3329313,3069950017,348,BK1302
12/19/2022 12:00:00 AM,Rosenwach Tank Co LLC,43-02 Ditmars Blvd,Astoria,New York,718-729-4900,11105,QUEENS,401,40.771246,-73.903803,22,4439585,4007820001,119,QN0101
12/20/2022 12:00:00 AM,Northgate Electric,63 Depot Road,Huntington,New York,631-897-1592,11746,,,,,,,,,
12/21/2022 12:00:00 AM,On-Trac Construction Associates Inc.,86-40 122nd Street,Richmond Hill,New York,718-441-6717,11418,QUEENS,409,40.70139,-73.828564,29,4193742,4092750056,144,QN0902
12/21/2022 12:00:00 AM,RJB Contracting Carting Corp,36-31 10th Street,Long Island City,New York,718-303-0782,11105,QUEENS,401,40.760904,-73.941089,26,4004307,4003530004,85,QN0105
12/21/2022 12:00:00 AM,TT Mechanical Corp,8077 Cypress Ave.,Glendale,New York,646-941-5002,11385,QUEENS,405,40.692834,-73.895082,30,4091109,4037310090,565,QN0503
12/22/2022 12:00:00 AM,6025 6th Avenue LLC,12203 6th Avenue,College Point,New York,917-916-5917,11356,QUEENS,407,40.791658,-73.845298,19,,,939,QN0701
12/22/2022 12:00:00 AM,Jun's Construction Inc.,122-03 14th Avenue,College Point,New Mexico,917-916-5917,11356,QUEENS,407,40.785403,-73.845605,19,4096943,4039970001,947,QN0701
12/23/2022 12:00:00 AM,2918 Arnow Real Estate Corpl.,731 Main Street,New Rochelle,New York,917-939-9667,10801,,,,,,,,,
12/23/2022 12:00:00 AM,"430 East 180 Street, Inc.",731 Main Street,New Rochelle,New York,917-939-9667,10801,,,,,,,,,
12/23/2022 12:00:00 AM,AMG Hospitality LLC,731 Main Street,New Rochelle,New York,917-939-9667,10801,,,,,,,,,
12/23/2022 12:00:00 AM,Supreme Builders Corp,183-30 Jamaica Avenue,Queens,New York,718-454-0800,11423,QUEENS,412,40.708942,-73.776853,27,4448883,4103520061,444,QN1201
12/29/2022 12:00:00 AM,The W Tower LLC,3 Skillman Street,Brooklyn,New York,917-613-9050,11205,BROOKLYN,303,40.698449,-73.957874,33,3000000,3018860030,1237,BK0301
12/30/2022 12:00:00 AM,ARA Construction Corp.,7500 Energy Court,Curtis Bay,Maryland,443-770-0800,21226,,,,,,,,,
01/04/2023 12:00:00 AM,"Allan Briteway Electrical Contractors, Inc.",228 East 45th Street,New York,New York,718-614-0277,10017,MANHATTAN,106,40.752355,-73.972266,4,1037578,1013180033,90,MN0604
01/04/2023 12:00:00 AM,Metro-Tech Erectors Corp.,58-02 Maspeth Avenue,Maspeth,New York,718-366-3024,11378,QUEENS,405,40.72309,-73.911828,30,4059787,4026720075,531,QN0501
01/06/2023 12:00:00 AM,Absolute Electrical Contracting of NY Inc,308 West 38th Street,New York,New York,212-776-4049,10018,MANHATTAN,104,40.754949,-73.992225,3,1013625,1007610041,111,MN0401
01/10/2023 12:00:00 AM,4923 TS LLC,7207 13 Avenue,Brooklyn,New York,917-682-2288,11228,BROOKLYN,310,40.62191,-74.005742,38,3158269,3061890007,198,BK1002
01/10/2023 12:00:00 AM,Advanced Equipment Corp.,2401 West Commonwealth Avenue,Fullerton,California,714-635-5340,92833,,,,,,,,,
01/10/2023 12:00:00 AM,Sheng Sheng Construction Inc.,17-17 166th Street,Whitestone,New York,718-281-2668,11357,QUEENS,407,40.782342,-73.797193,19,4000000,4057410001,1017,QN0703
01/11/2023 12:00:00 AM,Domino Refinery LLC,45 Main Street,Brooklyn,New York,718-222-2500,11201,BROOKLYN,302,40.702799,-73.990677,33,3329423,3000370001,21,BK0202
01/11/2023 12:00:00 AM,"Fresno Decorative Painting, Inc.",324 Lafayette Street,New York,New York,212-966-0676,10012,MANHATTAN,102,40.725545,-73.994974,2,1008216,1005220028,5502,MN0202
01/11/2023 12:00:00 AM,"GH123GREENWICH, LLC",9130 Sunset Boulevard,West Hollywood,California,917-608-6057,90069,,,,,,,,,
01/11/2023 12:00:00 AM,Refinery Construction LLC,45 Main Street,Brooklyn,New York,718-222-2500,11201,BROOKLYN,302,40.702799,-73.990677,33,3329423,3000370001,21,BK0202
01/12/2023 12:00:00 AM,Cooper Plastering,30 Nixon Lane,Edison,New Jersey,732-650-1919,08837,,,,,,,,,
01/19/2023 12:00:00 AM,1100 Leggett Owner LLC,c/o Innovo Property Group 1370 Avenue of the Americas,New York,New York,212-218-3150,10019,MANHATTAN,,,,,,,,
01/19/2023 12:00:00 AM,28-90 Review Ave Property Owner LLC,"c/o Innovo Property Group, 1370 Avenue of the Americas",New York,New York,646-659-2385,10019,MANHATTAN,,,,,,,,
01/19/2023 12:00:00 AM,Brause Plaza North LLC,52 Vanderbilt Avenue,New York,New York,212-697-5454,10017,MANHATTAN,105,40.754036,-73.977214,4,1035375,1012790045,94,MN0502
01/20/2023 12:00:00 AM,Evans Electrical Services Inc.,2861 Bruckner Blvd,Bronx,New York,732-619-1466,10465,BRONX,210,40.832502,-73.829751,13,2072600,2053060076,194,BX1002
01/20/2023 12:00:00 AM,Tristate Plumbing Services Corp.,1431 Cromwell Ave.,Bronx,New York,212-563-0341,10452,BRONX,204,40.841693,-73.919177,16,2008686,2028720183,21302,BX0403
01/20/2023 12:00:00 AM,Westside Windows,4403 15th Ave,Brooklyn,New York,917-771-7031,11219,BROOKLYN,312,40.635071,-73.984886,44,3128289,3054310009,232,BK1202
01/23/2023 12:00:00 AM,Freedom Electrical & Data Inc.,2556 Arthur Kill Road,Staten Island,New York,718-967-7200,10309,STATEN IS,503,40.552668,-74.218422,51,5086599,5070710001,20805,SI0303
01/23/2023 12:00:00 AM,KSS Construction Inc.,200 Atlantic Ave.,Oceanside,New York,516-897-6666,11572,,,,,,,,,
01/24/2023 12:00:00 AM,Baruffi Bros Inc.,907 N Main Rd,Vineland,New Jersey,856-691-7200,08360,,,,,,,,,
01/25/2023 12:00:00 AM,1055 63RD LLC,1167 57 Street,Brooklyn,New York,718-637-4893,11213,BROOKLYN,312,40.632387,-73.999805,44,3140033,3056890054,216,BK1202
01/26/2023 12:00:00 AM,Center 15 LLC,3611 14th Avenue,Brooklyn,New York,718-686-6263,11218,BROOKLYN,312,40.640848,-73.982459,39,3125035,3053490001,228,BK1202
01/26/2023 12:00:00 AM,Cityscape Builders LLC,5314 16th Ave.,Brooklyn,New York,718-435-5522,11204,BROOKLYN,312,40.628681,-73.987975,44,3130163,3054770039,238,BK1202
01/27/2023 12:00:00 AM,"AAU TARGEE RHINE REALTY, LLC",4280 Hylan Blvd,Staten Island,New York,718-221-1100,10312,STATEN IS,503,40.53606,-74.151909,51,5153157,5053180001,15603,SI0302
01/27/2023 12:00:00 AM,DS Fordham Landing 1 LLC,343 Taconic Road,Greenwich,California,646-413-0575,06831,,,,,,,,,
01/27/2023 12:00:00 AM,JJ Matthews Inc.,519 S. 5th Avenue,Mount Vernon,New York,914-237-9200,10550,,,,,,,,,
01/31/2023 12:00:00 AM,"Nevco Contracting, Inc.",9-11 N. West Street,Mount Vernon,New York,914-258-2401,10550,,,,,,,,,
02/01/2023 12:00:00 AM,"Ferguson Enterrises, LLC",12500 Jefferson Avenue,Newport News,Virginia,757-874-7795,23602,,,,,,,,,
02/01/2023 12:00:00 AM,"Structure Tone, Inc.",330 West 34th St,New York,New York,212-481-6100,10001,MANHATTAN,104,40.752619,-73.994503,3,1013553,1007570054,103,MN0401
02/02/2023 12:00:00 AM,"Transform Electrical Contractors, Inc.",32 E. 31st Street,New York,New York,212-686-8788,10016,MANHATTAN,105,40.745729,-73.984052,2,1016970,1008600055,74,MN0501
02/06/2023 12:00:00 AM,1-10 Bush Terminal Owner LP,"c/o Bush Terminal Holdings, LP, 220-36th Street",Brooklyn,New York,718-965-6450,11232,BROOKLYN,307,40.652939,-74.018322,38,,,1803,BK0702
02/07/2023 12:00:00 AM,Spectrum Painting,1 Byram Brook Place,Armonk,New York,914-723-4800,10504,,,,,,,,,
02/10/2023 12:00:00 AM,"M&S Mechanical Services, Inc.",300 Denton Avenue,New Hyde Park,New York,516-307-9444,11040,,,,,,,,,
02/13/2023 12:00:00 AM,4040 Northern LLC,7500 Westside Avenue,North Bergen,New Jersey,631-291-0004,07047,,,,,,,,,
02/13/2023 12:00:00 AM,"Aabco Sheet Metal Co., Inc.",47-40 Metropolitan Ave,Maspeth,New York,718-821-1166,11385,QUEENS,405,40.713695,-73.91899,34,4548477,4033750015,53901,QN0502
02/15/2023 12:00:00 AM,821 Broadway LLC,441 Lexington Avenue,New York,New York,212-503-0903,10017,MANHATTAN,106,40.752726,-73.974793,4,1036174,1012990022,92,MN0604
02/15/2023 12:00:00 AM,Coordinated Metals Inc.,626 16th Street,Carlstadt,New Jersey,201-460-7280,07072,,,,,,,,,
02/15/2023 12:00:00 AM,Kelly Interiors,1029 Garry Terrace,Secaucus,New Jersey,201-805-6223,07094,,,,,,,,,
02/16/2023 12:00:00 AM,Linder Enterprises,3200 Third Avenue,Mankato,Minnesota,507-388-7777,56001,,,,,,,,,
02/17/2023 12:00:00 AM,Richter + Ratner Ccontracting Corp.,45 West 36th Street,New York,New York,212-936-4500,10018,MANHATTAN,105,40.75059,-73.985661,4,1015923,1008380015,84,MN0502
02/21/2023 12:00:00 AM,One Seven Five Water LLC,249 Smith Street,Brooklyn,New York,347-925-0909,11231,BROOKLYN,306,40.683311,-73.992767,39,3006697,3004150008,75,BK0601
02/21/2023 12:00:00 AM,SPK Lewis Construction LLC,35 W 36th Street,New York,New York,212-645-6800,10028,MANHATTAN,105,40.750518,-73.985487,4,1015925,1008387503,84,MN0502
02/23/2023 12:00:00 AM,"Unity Construction Services, Inc.",2500 Main Street,Sayreville,New Jersey,732-967-9800,08872,,,,,,,,,
02/24/2023 12:00:00 AM,"COASTAL TILE & MARBLE, INC.",690 N. Broadway,N White Plains,New York,914-946-7971,10603,,,,,,,,,
02/24/2023 12:00:00 AM,"International Asbestos Removal, Inc.",119 Cooper Street,Babylon,New York,718-335-0304,11702,,,,,,,,,
02/24/2023 12:00:00 AM,RS Piping Corp.,10 Cozy Glen Ct,Saddle Brook,New Jersey,862-203-1292,07663,,,,,,,,,
02/28/2023 12:00:00 AM,"1211 6th Avenue Property Owner, L.L.C.","c/o Hines, 3 Bryant Park",New York,New York,212-840-8615,10036,MANHATTAN,105,40.753496,-73.982964,4,1000000,1012570002,84,MN0502
02/28/2023 12:00:00 AM,296 West Fordam Road Inc.,115 New Canaan Avenue,Norwalk,Connecticut,203-919-6337,06850,,,,,,,,,
02/28/2023 12:00:00 AM,Centauri Development Inc,18-16 127th Street,College Point,New York,718-460-1696,11356,QUEENS,407,40.782982,-73.841346,19,4564796,4041320027,925,QN0701
03/01/2023 12:00:00 AM,Elite Flooring,100 Business Park Drive,Armonk,New York,718-655-5450,10504,,,,,,,,,
03/01/2023 12:00:00 AM,Wesco Distribution,500 Prime Place,Hauppauge,New York,412-454-2200,11788,,,,,,,,,
03/02/2023 12:00:00 AM,Advanced Cladding Construction Corp.,811 Mclean Ave,Yonkers,New York,917-952-5107,10704,,,,,,,,,
03/02/2023 12:00:00 AM,Shoreline Builders LLC,333 West 39th Street,New York,New York,212-203-2868,10018,MANHATTAN,104,40.755792,-73.99225,3,1013681,1007630018,115,MN0402
03/02/2023 12:00:00 AM,Simpliying IT Consultants LLC,1480 Prospect Avenue,East Meadow,New York,516-544-8500,11554,,,,,,,,,
03/06/2023 12:00:00 AM,Central Interiors Inc.,501 7th Avenue,New York,New York,212-481-5550,10018,MANHATTAN,105,40.752984,-73.989165,3,1015253,1008130001,109,MN0502
03/06/2023 12:00:00 AM,CW Northern LLC,34-30 Collins Place,Flushing,New York,718-939-3397,11354,QUEENS,407,40.764762,-73.835285,20,4111892,4049450073,869,QN0707
03/06/2023 12:00:00 AM,First F&L Realty LLC,262 Starr Street,Brooklyn,New York,347-728-0609,11237,BROOKLYN,304,40.706426,-73.921815,34,3072789,3032000011,447,BK0401
03/06/2023 12:00:00 AM,"Front Wave Construction, Inc.",142-08 People Avenue,Flushing,New York,516-986-8688,11355,QUEENS,,,,,,,,
03/07/2023 12:00:00 AM,90-75 Sutphin Realty LLC,34-30 Collins Place,Flushing,New York,718-939-3397,11354,QUEENS,407,40.764762,-73.835285,20,4111892,4049450073,869,QN0707
03/07/2023 12:00:00 AM,Build NYC Group Corp.,1180 Avenue of the Americas,New York,New York,212-847-9601,10166,MANHATTAN,105,40.757479,-73.982176,4,1034313,1012620001,96,MN0502
03/09/2023 12:00:00 AM,"Bruno Frustaci Contracting, Inc.",347 37th Street,Brooklyn,New York,718-567-0229,11232,BROOKLYN,307,40.654356,-74.005993,38,3395298,3006960048,84,BK0702
03/09/2023 12:00:00 AM,CHV 329 Clarkson Avenue L.P.,1720 Church Avenue,Brooklyn,New York,917-208-8011,11226,BROOKLYN,314,40.649363,-73.963253,40,3341487,3050970085,512,BK1401
03/09/2023 12:00:00 AM,Eastland Assoc. Corp.,"173 Huguenot St,",New Rochelle,New York,914-403-2953,10801,,,,,,,,,
03/09/2023 12:00:00 AM,United Structural Works,100 Brenner Drive,Congers,New York,845-268-3600,10920,,,,,,,,,
03/13/2023 12:00:00 AM,"21 ST Ventures, LLC",33-66 Farrignton Street,Flushing,New York,718-939-1060,11354,QUEENS,,,,,,,,
03/13/2023 12:00:00 AM,35 Ave Xu Holdings LLC,33-66 Farrington Street,Flushing,New York,718-939-1060,11354,QUEENS,407,40.766303,-73.832544,20,4618575,4049497501,869,QN0707
03/13/2023 12:00:00 AM,Columne Development LLC,1015 Cedar Swamp Road,Glen Head,New York,917-686-0772,11545,,,,,,,,,
03/14/2023 12:00:00 AM,"Phillips Construction, Inc.",423 Manchester Way,Wyckoff,New Jersey,201-445-2656,07481,,,,,,,,,
03/15/2023 12:00:00 AM,"Fox News Network, LLC",1211 6th Avenue,New York,New York,212-301-3000,10036,MANHATTAN,105,40.758393,-73.981537,4,1022678,1010000029,125,MN0502
03/15/2023 12:00:00 AM,King C Steel Works LLC,270 Randolph Avenue,Brooklyn,New York,718-388-6767,11237,BROOKLYN,,,,,,,,
03/15/2023 12:00:00 AM,Skylight Development Inc,44 Keene Knolls Way,Keene,New York,347-670-3269,12942,,,,,,,,,
03/15/2023 12:00:00 AM,"Techno-Volt Electric, Inc",28-29 119 STREET,FLUSHING,New York,718-359-8070,11354,QUEENS,407,40.77268,-73.8488,19,4100693,4043160004,907,QN0701
03/16/2023 12:00:00 AM,Erection & Welding Contractors LLC,190 New Park Drive,Berlin,Connecticut,860-828-9353,06037,,,,,,,,,
03/16/2023 12:00:00 AM,JEL Equipment Rentals LLC/RYC Turbos Corp.,780 Long Beach Blvd,Long Beach,New York,646-281-3135,11561,,,,,,,,,
03/16/2023 12:00:00 AM,Unlimited Stone Works Inc.,33-53 10th Street,Astoria,New York,718-279-4060,11106,QUEENS,401,40.765887,-73.937991,22,4436727,4003190020,85,QN0105
03/17/2023 12:00:00 AM,394 Mother Gaston LLC,21 Howard Street,New York,New York,347-451-6899,10013,MANHATTAN,102,40.719399,-74.000307,1,1002692,1002090028,45,MN0201
03/17/2023 12:00:00 AM,Get Real Surfaces,121 Washington Street,Poughkeepsie,New York,845-452-3988,12601,,,,,,,,,
03/17/2023 12:00:00 AM,LCD Elevator Repair Inc.,224 East 2nd Street,Mineola,New York,516-705-8817,11501,,,,,,,,,
03/20/2023 12:00:00 AM,"Benchmark Builders, Inc.",237 West 35th Street,New York,New York,212-766-8800,10001,MANHATTAN,105,40.752152,-73.991287,3,1014425,1007850018,109,MN0502
03/20/2023 12:00:00 AM,Hidden Hill Hospitality Construction and Renovation Inc.,870 7th Ave,New York,New York,973-934-0375,10019,MANHATTAN,105,40.764521,-73.980773,6,1024878,1010277501,137,MN0502
03/20/2023 12:00:00 AM,RPH Hotels 51st Street Owner LLC,870 2nd Avenue,New York,New York,646-710-5710,10018,MANHATTAN,106,40.752643,-73.970137,4,1088794,1013390027,90,MN0604
03/20/2023 12:00:00 AM,"United States Information Sytems, Inc.",35 West Jefferson Avenue,Pearl River,New York,845-536-8106,10965,,,,,,,,,
03/20/2023 12:00:00 AM,"Wilkstone, LLC",128 19th Avenue,Paterson,New Jersey,973-684-5100,07513,,,,,,,,,
03/21/2023 12:00:00 AM,40th Avenue Dutch Kills Realty LLC,36-08 30 Avenue,Astoria,New York,718-721-8585,11103,QUEENS,401,40.764935,-73.917231,22,4010011,4006510044,63,QN0103
03/21/2023 12:00:00 AM,Best Contracting,2114 Aurthur Avenue,Bronx,New York,917-287-3990,10457,BRONX,,,,,,,,
03/21/2023 12:00:00 AM,East 180 Operating LLC,374 Mclean Avenue,Yonkers,New York,917-731-1321,10705,,,,,,,,,
03/21/2023 12:00:00 AM,Jerome Aluminum Products Corp,625 Main Street,Westbury,New York,516-277-8700,11590,,,,,,,,,
03/21/2023 12:00:00 AM,N.Y. Preferred Development Group,36-08 30 Avenue,Astoria,New York,347-408-7794,11103,QUEENS,401,40.764935,-73.917231,22,4010011,4006510044,63,QN0103
03/21/2023 12:00:00 AM,Star Construction & Stone Inc,58-59 59th Street,Maspeth,New York,917-204-6198,11378,QUEENS,405,40.719497,-73.908232,30,4533547,4026990106,525,QN0501
03/21/2023 12:00:00 AM,"The Omara Organization, Inc.",261 WEST 35th Street,New York,New York,212-412-7177,10001,MANHATTAN,105,40.752358,-73.991774,3,1014422,1007850007,109,MN0502
03/22/2023 12:00:00 AM,61 West 23rd Street LLC,10 East 53rd Street,New York,New York,212-220-9945,10022,MANHATTAN,105,40.760121,-73.975144,4,1035709,1012880007,102,MN0502
03/23/2023 12:00:00 AM,"L&K Partners, Inc.",104 East 25th Street,New York,New York,212-682-8448,10010,MANHATTAN,105,40.741282,-73.984999,2,1018088,1008800084,68,MN0602
03/24/2023 12:00:00 AM,Montrose Heights LLC,199 Lee Avenue,Brooklyn,New York,718-206-8118,11211,BROOKLYN,301,40.701995,-73.955762,33,3060998,3022260001,533,BK0103
03/27/2023 12:00:00 AM,Cord Contracting Co Inc,80 Crossways Park Dr,Woodbury,New York,516-626-8800,11797,,,,,,,,,
03/27/2023 12:00:00 AM,"Doorline Glass & Metal, Inc.",19040 45th Street,Astoria,New York,347-738-5582,11105,QUEENS,401,40.775459,-73.897544,22,4015227,4007880042,12301,QN0101
03/27/2023 12:00:00 AM,L3 Berry and N 6 LLC,550 West Adams Street,Chicago,Illinois,312-878-4845,60661,,,,,,,,,
03/27/2023 12:00:00 AM,NYC Club Owner LLC,1991 Broadway,Redwood City,California,650-681-0185,94063,,,,,,,,,
03/28/2023 12:00:00 AM,Ainsworth,83-40 72 Drive,Glendale,New York,718-383-2100,11385,QUEENS,405,40.708654,-73.864932,32,4308311,4038100444,637,QN0503
03/28/2023 12:00:00 AM,CR Sunflower Lessee LLC,1500 Broadway,New York,New York,646-502-5778,10036,MANHATTAN,105,40.756856,-73.985973,4,1022610,1009960001,119,MN0502
03/28/2023 12:00:00 AM,"Ronsco, Inc.",312 Fifth Avenue,New York,New York,212-627-0500,10001,MANHATTAN,105,40.74692,-73.98568,3,1015820,1008330044,76,MN0501
03/29/2023 12:00:00 AM,"Division Ten Building Specialities, Inc.",5 Auer Ct,East Brunswick,New Jersey,732-390-6100,08816,,,,,,,,,
03/30/2023 12:00:00 AM,Broadway metro Associates LP,249 W. 34 St.,New York,New York,212-751-2408,10001,MANHATTAN,105,40.751784,-73.992475,3,1014398,1007840015,109,MN0502
03/30/2023 12:00:00 AM,"Kel-mar Interiors, Inc.",111 John Street,New York,New York,212-285-0400,10038,MANHATTAN,101,40.707671,-74.005764,1,1001167,1000750030,1502,MN0101
04/03/2023 12:00:00 AM,"KPM Construction Services, Inc.",104-51 Lefferts Blvd,South Richmond Hills,New York,914-886-3552,11419,QUEENS,410,40.68593,-73.824013,28,4204268,4095730056,166,QN1001
04/05/2023 12:00:00 AM,Borden Avenue Opportunity Zone Business LLC,44-02 11th Street,Long Island City,New York,718-707-2884,11101,QUEENS,402,40.749849,-73.949237,26,4005247,4004490013,1903,QN0201
04/05/2023 12:00:00 AM,"Daktronics, Inc.",201 Daktronics Drive,Brookings,South Dakota,605-629-0200,57006,,,,,,,,,
04/05/2023 12:00:00 AM,Terry Design,63 Flushing Ave,Brooklyn,New York,917-500-7223,11205,BROOKLYN,302,40.69802,-73.974986,33,3335129,3020230001,543,BK0261
04/05/2023 12:00:00 AM,The Vorea Construction Companies,44-02 11th Street,Long Island City,New York,718-707-2884,11101,QUEENS,402,40.749849,-73.949237,26,4005247,4004490013,1903,QN0201
04/06/2023 12:00:00 AM,"East Port Excav., Inc",774 Marconi Ave,Ronkonkoma,New York,631-981-2108,11779,,,,,,,,,
04/10/2023 12:00:00 AM,SKF Electrical Corp,11-20 37th Avenue,Long Island City,New York,347-730-5101,11101,QUEENS,401,40.759669,-73.940577,26,4004397,4003610023,85,QN0105
04/11/2023 12:00:00 AM,"27 Cliff Owner, LLC",11 Grace Avenue,Great Neck,New York,212-658-0755,11021,,,,,,,,,
04/11/2023 12:00:00 AM,"Accord Power, Inc.",130-30 31st Avenue,Flushing,New York,718-321-8820,11354,QUEENS,407,40.769258,-73.839306,19,4100745,4043600001,907,QN0701
04/11/2023 12:00:00 AM,"SavCon, LLC",1054 West 40th Street,New York,New York,646-217-4511,10018,MANHATTAN,,,,,,,,
04/14/2023 12:00:00 AM,"Post Road Iron Works, Inc.",345 West Putnam Avenue,Greenwich,Connecticut,203-869-6322,06830,,,,,,,,,
04/17/2023 12:00:00 AM,58-25 57 Street LLC,58-10A 59 Street,Maspeth,New York,646-941-5002,11378,QUEENS,405,40.720716,-73.908332,30,4594362,4026800150,531,QN0501
04/17/2023 12:00:00 AM,Emanon Electric Inc.,235 West 35th Street,New York,New York,718-848-2891,10001,MANHATTAN,105,40.752136,-73.991244,3,1014426,1007850023,109,MN0502
04/17/2023 12:00:00 AM,FM Construction Group LLC,100 DR. MARTIN LUTHER KING BLVD,East Orange,New Jersey,973-989-1616,07018,,,,,,,,,
04/17/2023 12:00:00 AM,Level Windows & Doors LLC,147 Prince Street,Brooklyn,New York,646-204-4798,11201,BROOKLYN,302,40.692648,-73.982532,35,3058261,3020620006,1502,BK0202
04/18/2023 12:00:00 AM,Duprat Construction,511 Canal Street,New York,New York,561-676-6896,10013,MANHATTAN,102,40.724425,-74.008915,1,1010287,1005940008,37,MN0201
04/18/2023 12:00:00 AM,EarthTech Solutions,15 Biret Drive,Airmont,New York,347-372-1219,10952,,,,,,,,,
04/19/2023 12:00:00 AM,GIC Queens LLC,"c/o Goodman, 7660 Imperial Way",Allentownn,Pennsylvania,484-221-6726,18195,,,,,,,,,
04/20/2023 12:00:00 AM,B Sosa Enterprises,35 Caroll street,Brentwood,New York,718-961-2000,11717,,,,,,,,,
04/24/2023 12:00:00 AM,"3010 Brighton 14th Street, LLC",2551 East 27th Street,Brooklyn,New York,718-490-1313,11235,BROOKLYN,315,40.590295,-73.94287,48,3204657,3074430036,596,BK1503
04/24/2023 12:00:00 AM,Build R US Corp,140 Beaumont Street,Brooklyn,New York,718-866-7707,11235,BROOKLYN,315,40.578458,-73.951268,48,3246044,3087330061,620,BK1503
04/24/2023 12:00:00 AM,Pride & Service Elevator Co,118 East 28th Street,New York,New York,908-967-6074,10016,MANHATTAN,105,40.742921,-73.983129,2,1018164,1008830014,68,MN0602
04/27/2023 12:00:00 AM,GOTHAM INDUSTRIAL SERVICES INC.,484 2nd AVENUE,New York,New York,646-283-9558,10016,MANHATTAN,106,40.740581,-73.978925,2,1082732,1009340001,66,MN0603
04/28/2023 12:00:00 AM,JTJ Studio Corp.,28-14 14 St,Astoria,New York,917-577-7208,11102,QUEENS,401,40.771901,-73.929064,22,4005615,4005120004,83,QN0102
04/28/2023 12:00:00 AM,Sovereign Mechanical Corp,307 7th Avenue,New York,New York,212-352-8500,10001,MANHATTAN,105,40.746869,-73.993616,3,1015061,1008030004,95,MN0501
05/01/2023 12:00:00 AM,ALLEN ARCHITECTURAL METALS,100 Homer Drive,Talladega,Alabama,347-232-4146,35160,,,,,,,,,
05/01/2023 12:00:00 AM,Henricksen & Company Inc,1101 W Thorndale Avenue,Itasca,Illinois,630-250-9090,60143,,,,,,,,,
05/02/2023 12:00:00 AM,Elysium Construction,315 West 39th Street,New York,New York,212-244-2844,10018,MANHATTAN,104,40.755638,-73.991882,3,1013683,1007630024,115,MN0402
05/02/2023 12:00:00 AM,"Live Nation Entertainment, Inc.","Live Nation, 325 N. Maple Drive",Beverly Hills,California,310-710-9807,90210,,,,,,,,,
05/02/2023 12:00:00 AM,"Texas Scenic Company, Inc.",701 East 132nd Street,Bronx,New York,210-684-0091,10454,BRONX,201,40.801074,-73.915878,8,2092866,2025610021,1902,BX0101
05/02/2023 12:00:00 AM,Westchester Metal Works Inc.,55 Knowles Street,Yonkers,New York,914-376-4999,10705,,,,,,,,,
05/03/2023 12:00:00 AM,Coeptum Builders LLC,4403 15th Avenue,Brooklyn,New York,347-816-8501,11219,BROOKLYN,312,40.635071,-73.984886,44,3128289,3054310009,232,BK1202
05/03/2023 12:00:00 AM,Cosan Construction Corp.,734 S Columbus Avenue,Mount Vernon,New York,914-237-2381,10550,,,,,,,,,
05/03/2023 12:00:00 AM,Linden Realty LLC,614 Avenue J,Brooklyn,New York,718-263-4800,11230,BROOKLYN,312,40.624229,-73.969917,44,3171109,3065270006,452,BK1204
05/03/2023 12:00:00 AM,South Ferry Development Corp.,4901 Laurel Hill Blvd.,Woodside,New York,718-784-5015,11377,QUEENS,402,40.735503,-73.917379,26,4053523,4023110001,23501,QN0202
05/05/2023 12:00:00 AM,"A.J. McNulty & Co., Inc.",53-20 44th Street,Maspeth,New York,718-784-1655,11378,QUEENS,402,40.732455,-73.923048,26,4437431,4025140026,205,QN0202
05/08/2023 12:00:00 AM,"Forestdale, Inc.",67-35 112th Street,Forest Hills,New York,718-263-0740,11375,QUEENS,406,40.729354,-73.842599,29,4441126,4022060006,747,QN0602
05/11/2023 12:00:00 AM,"Midtown Heights, Inc.",224 Miller Street,Newark,New Jersey,862-237-7070,07114,,,,,,,,,
05/12/2023 12:00:00 AM,Jay United Elect.,40 Wall Street,New York,New York,917-796-4269,10005,MANHATTAN,101,40.706784,-74.010132,1,1001018,1000430002,7,MN0101
05/15/2023 12:00:00 AM,Archstone Builders LLC,242 West 30th Street,New York,New York,212-401-1220,10001,MANHATTAN,105,40.749004,-73.993742,3,1014303,1007790066,95,MN0501
05/17/2023 12:00:00 AM,E & M Realty Corp,"241 37th Street, 1-4-B460",Brooklyn,New York,718-228-1462,11232,BROOKLYN,307,40.6558,-74.008408,38,3336906,3006950001,2,BK0702
05/17/2023 12:00:00 AM,"Titanium Construction Services, Inc.",330 Seventh Avenue,New York,New York,212-986-4753,10001,MANHATTAN,105,40.747549,-73.993143,3,1014264,1007780043,95,MN0501
05/18/2023 12:00:00 AM,144 Point Break LLC,2130 Broadway,New York,New York,212-362-4772,10023,MANHATTAN,107,40.780737,-73.981379,6,1030727,1011660035,163,MN0702
05/18/2023 12:00:00 AM,Alfa Piping Corp.,75 Verdi Street,Farmingdale,New York,718-433-2525,11735,,,,,,,,,
05/18/2023 12:00:00 AM,Efficient Climate Solution Inc,2841 Bragg Street,Brooklyn,New York,718-309-3204,11235,BROOKLYN,315,40.584682,-73.933079,48,3247938,3088070142,622,BK1503
05/19/2023 12:00:00 AM,Galaxy Developers LLC,505 Flushing Ave.,Brooklyn,New York,718-246-4762,11205,BROOKLYN,301,40.699238,-73.954866,33,3396777,3022637508,53102,BK0103
05/19/2023 12:00:00 AM,Harrison Realty LLC,505 Flushing Avenue,Brooklyn,New York,718-246-4762,11205,BROOKLYN,301,40.699238,-73.954866,33,3396777,3022637508,53102,BK0103
05/23/2023 12:00:00 AM,"ARI Products, Inc.",102 Gaither Drive,Mount Laurel,New Jersey,856-234-0757,08054,,,,,,,,,
05/23/2023 12:00:00 AM,Blakeslee Prestress Inc.,"25 McDermott Road, PO Box 510",Branford,Connecticut,203-481-5306,06405,,,,,,,,,
05/26/2023 12:00:00 AM,Bestmark National LLC,171 Coit St,Irvington,New Jersey,862-888-3285,07111,,,,,,,,,
05/26/2023 12:00:00 AM,Gemstar Construction Corp.,83 Jewette Avenue,Staten Island,New York,718-442-8200,10302,,,,,,,,,
05/26/2023 12:00:00 AM,Nova Electric LLC,130 West 37th Street,New York,New York,917-364-2132,10018,MANHATTAN,105,40.752352,-73.987967,3,1015252,1008120162,109,MN0502
05/26/2023 12:00:00 AM,"Turner Promethean, A Joint Venture",66 Hudson Boulevard East,New York,New York,212-229-6000,10001,MANHATTAN,104,40.755487,-74.000213,3,1090122,1007060017,9903,MN0401
05/31/2023 12:00:00 AM,"Times Square JV, LLC",299 Park Avenue,New York,New York,212-692-5414,10017,MANHATTAN,105,40.756456,-73.974495,4,1036223,1013030001,92,MN0604
06/01/2023 12:00:00 AM,Alumaline Inc.,25-37 Francis Lewis Boulevard,Flushing,New York,718-747-2150,11358,QUEENS,407,40.773748,-73.796959,19,4129462,4057690015,1017,QN0703
06/01/2023 12:00:00 AM,Universal Concrete Products Corporation,400 Old Reading Pike,Stowe,Pennsylvania,610-323-0700,19464,,,,,,,,,
06/05/2023 12:00:00 AM,"DCO QOZB 38-15 QB, LLC",250 N. Route 303,West Nyack,New York,845-320-3133,10994,,,,,,,,,
06/05/2023 12:00:00 AM,Gala Systems,"3185 First Street, St Hubert",Quebec,Canada,450-678-7226,J3Y 8Y6,,,,,,,,,
06/06/2023 12:00:00 AM,"KNS Building Restoration, Inc",69-81 75th Street,Middle Village,New York,718-956-7920,11379,QUEENS,405,40.707469,-73.875679,30,4092113,4037940053,619,QN0504
06/07/2023 12:00:00 AM,Building Blocks Inc.,1150 Joelson Road,Kissimmee,Florida,636-295-0408,34744,,,,,,,,,
06/08/2023 12:00:00 AM,Alpine Enterprises LTD,4608 3rd Avenue,Brooklyn,New York,347-225-2068,11220,BROOKLYN,307,40.649811,-74.012382,38,3337214,3007540040,2,BK0702
06/08/2023 12:00:00 AM,Eurotech Construction Corporation,1212 Avenue of The Americas,New York,New York,212-594-7474,10036,MANHATTAN,105,40.758404,-73.981504,4,1034502,1012630071,96,MN0502
06/08/2023 12:00:00 AM,Northeast Precast,92 Reese Rd,Millville,New Jersey,856-765-9088,08332,,,,,,,,,
06/08/2023 12:00:00 AM,One Wythe LLC,329 Hewes Street,Brooklyn,New York,718-302-7005,11211,BROOKLYN,301,40.706542,-73.953166,33,3060469,3022080016,529,BK0103
06/12/2023 12:00:00 AM,Lemle & Wolff Construction Corp.,5925 Broadway,Bronx,New York,718-884-7676,10463,BRONX,208,40.888213,-73.8989,11,2084013,2057760539,285,BX0802
06/13/2023 12:00:00 AM,"110 William Property Investors III, LLC",430 Park Avenue,New York,New York,,10022,MANHATTAN,105,40.760847,-73.971321,4,1035772,1012910038,102,MN0502
06/13/2023 12:00:00 AM,502/12 86th Street LLC,21 Dey Street,New York,New York,212-235-6331,10007,MANHATTAN,101,40.71092,-74.010608,1,1001070,1000630006,13,MN0101
06/14/2023 12:00:00 AM,Capone Electrical Contractors Corp,732 Commerce Avenue,Thornwood,New York,914-494-3737,10594,,,,,,,,,
06/20/2023 12:00:00 AM,E149BX LLC,141 West 36th Street,New York,New York,646-591-1117,10018,MANHATTAN,105,40.751721,-73.988342,3,1015238,1008120016,109,MN0502
06/20/2023 12:00:00 AM,Omnibuild Construction Inc,141 West 36th Street,New York,New York,212-419-1930,10018,MANHATTAN,105,40.751721,-73.988342,3,1015238,1008120016,109,MN0502
06/21/2023 12:00:00 AM,"Majestic Theatre, LLC",234 West 44th Street,New York,New York,212-944-3745,10036,MANHATTAN,105,40.757921,-73.987421,3,1024707,1010150049,119,MN0502
06/21/2023 12:00:00 AM,"The Shubert Organization, Inc.",234 West 44th Street,New York,New York,212-944-3745,10036,MANHATTAN,105,40.757921,-73.987421,3,1024707,1010150049,119,MN0502
06/23/2023 12:00:00 AM,Nations Roof East LLC,255 Lake Ave,Yonkers,New York,914-423-6171,10701,,,,,,,,,
06/26/2023 12:00:00 AM,49-19 LLC,365 Route 59,Monsey,New York,347-633-1523,10952,,,,,,,,,
06/27/2023 12:00:00 AM,Ennish Construction Corp.,390 Fifth Avenue,New York,New York,716-589-6556,10018,MANHATTAN,105,40.749807,-73.98408,4,1015900,1008370048,84,MN0502
06/27/2023 12:00:00 AM,PS Marcato Elevator Co.,44-11 Eleventh Street,Long Island City,New York,718-392-6500,11101,QUEENS,,,,,,,,
06/27/2023 12:00:00 AM,"Terrasmart, Inc.",6715 Steger Drive,Cincinnati,Ohio,513-242-2051,45237,,,,,,,,,
06/28/2023 12:00:00 AM,"Interstate Air Conditioning & Heating, Inc.",701 Lehigh Avenue,Union,New Jersey,212-671-2240,07083,,,,,,,,,
06/29/2023 12:00:00 AM,HP Blondell Avenue Housing Development,150 E 52nd Street,New York,New York,212-301-2460,10022,MANHATTAN,106,40.757534,-73.970965,4,1036463,1013060042,100,MN0604
07/03/2023 12:00:00 AM,2218 JEROME LLC,6132 Riverdale Avenue,Bronx,New York,917-796-1999,10471,BRONX,208,40.910833,-73.903015,11,2103485,2058871325,337,BX0803
07/05/2023 12:00:00 AM,"B1 Retail Parcel, L.L.C.",45 Rockefeller Plaza,New York,New York,212-715-0123,10111,MANHATTAN,105,40.759204,-73.978335,4,1083860,1012660001,104,MN0502
07/05/2023 12:00:00 AM,LANE ASSOCIATES,3916 Long Beach Road,Island Park,New York,516-431-0900,11558,,,,,,,,,
07/06/2023 12:00:00 AM,McKinnon Design LLC D/B/A Modern Woodcrafts,72 Northwest Drive,Plainville,Connecticut,978-505-3541,06062,,,,,,,,,
07/07/2023 12:00:00 AM,3920 15 Avenue LLC,4002 15th Avenue,Brooklyn,New York,718-853-3000,11218,BROOKLYN,312,40.637318,-73.982572,39,3328387,3053450034,230,BK1202
07/10/2023 12:00:00 AM,Barone Construction LLC,1044 Northern Blvd,Roslyn,New York,646-476-9228,11576,,,,,,,,,
07/10/2023 12:00:00 AM,BM Courtlandt Developer LLC,1044 Northern Blvd,Roslyn,New York,646-476-9228,11576,,,,,,,,,
07/10/2023 12:00:00 AM,BMAD Bartholdi LLC,1044 Northern Blvd,Roslyn,New York,646-476-9228,11576,,,,,,,,,
07/10/2023 12:00:00 AM,BMAD Tremont LLC,1044 Northern Blvd,Roslyn,New York,646-476-9228,11576,,,,,,,,,
07/10/2023 12:00:00 AM,Galaxy Storage One LP,2727 North Central Avenue,Phoenix,Arizona,718-562-8700,85004,,,,,,,,,
07/10/2023 12:00:00 AM,"H.T. Lyons, Inc.",241-02 Northern Blvd,Douglaston,New York,718-819-8844,11362,QUEENS,411,40.764945,-73.745627,19,4312465,4081780001,150701,QN1103
07/10/2023 12:00:00 AM,"Perfectaire Company, Inc.",124-11 101th Avenue,Richmond Hill,New York,718-846-3535,11419,QUEENS,409,40.691201,-73.821634,29,4199882,4094650025,154,QN0903
07/12/2023 12:00:00 AM,Joy Construction Corp,40 Fulton Street,New York,New York,212-766-9652,10038,MANHATTAN,101,40.707904,-74.004411,1,1075618,1000750021,1502,MN0101
07/12/2023 12:00:00 AM,Platform Solutions Inc,1212 Avenue of the Americas,New York,New York,914-343-4050,10036,MANHATTAN,105,40.758404,-73.981504,4,1034502,1012630071,96,MN0502
07/13/2023 12:00:00 AM,"Empire Development Fund 2, LLC",350 5th Avenue,New York,New York,212-736-4300,10118,MANHATTAN,105,40.748276,-73.98469,4,1015862,1008350041,76,MN0501
07/14/2023 12:00:00 AM,Champion Glass and Metals,130 Motor Parkwway,New York,New York,631-254-2560,11788,MANHATTAN,,,,,,,,
07/17/2023 12:00:00 AM,Aqua Plumbing & Heating Corp.,3324 Delavall Avenue,Bronx,New York,718-231-7564,10475,BRONX,210,40.881143,-73.827185,12,2072434,2052460042,46203,BX1004
07/17/2023 12:00:00 AM,Statewide Demolition Corp.,58-83 54th Street,Maspeth,New York,718-416-2100,11378,QUEENS,405,40.718081,-73.914897,30,4437489,4026290221,53501,QN0501
07/17/2023 12:00:00 AM,"The Knoller Companies, Inc.",99 Fanny Rd.,Boonton,New Jersey,908-591-4062,07005,,,,,,,,,
07/19/2023 12:00:00 AM,Direct Flooring,12 Minneakoning Road,Farmington,New Jersey,973-296-8308,08822,,,,,,,,,
07/20/2023 12:00:00 AM,Dynamic Sheet Metal Ltd.,192 24th Street,Brooklyn,New York,718-788-1350,11232,BROOKLYN,307,40.661853,-73.998811,38,3009568,3006510014,101,BK0702
07/21/2023 12:00:00 AM,"Adler Windows, Inc.",175-16 Liberty Avenue,Jamaica,New York,718-291-0001,11433,QUEENS,412,40.704861,-73.784116,27,4217961,4102320014,440,QN1202
07/21/2023 12:00:00 AM,Barrett Inc.,106 Mill Plain Road,Danbury,Connecticut,203-744-2780,06811,,,,,,,,,
07/24/2023 12:00:00 AM,Rinnovo Construction,450 7th Avenue,New York,New York,631-960-5279,10123,MANHATTAN,105,40.751359,-73.990367,3,1014408,1007840041,109,MN0502
07/25/2023 12:00:00 AM,H&L Electric Inc.,41-11 28th Street,Long Island City,New York,718-361-6400,11101,QUEENS,401,40.75115,-73.937791,26,4005025,4004170014,3301,QN0105
07/25/2023 12:00:00 AM,Kingdom Associates Inc.,46-11 54th Avenue,Maspeth,New York,718-349-9198,11378,QUEENS,402,40.731584,-73.921396,26,4058868,4025440015,205,QN0202
07/26/2023 12:00:00 AM,"SSE Enterprise, LLC",401 W. High Street,Rothtown,Pennsylvania,845-551-3155,19464,,,,,,,,,
08/02/2023 12:00:00 AM,A Plus Plumbing Corp.,539 Wild Avenue,Staten Island,New York,718-605-3900,10314,STATEN IS,502,40.587078,-74.19834,50,5136064,5026610213,29102,SI0204
08/02/2023 12:00:00 AM,Demy Construction Systems Inc.,1180 Unit 11 Lincoln Avenue,Salem,Ohio,631-888-3055,44460,,,,,,,,,
08/04/2023 12:00:00 AM,"Bauerschmidt & sons, Inc.",119-20 Merrick Blvd.,Jamaica,New York,929-487-2946,11434,QUEENS,412,40.685354,-73.772519,28,4440958,4123740022,282,QN1203
08/08/2023 12:00:00 AM,DOLP 655 Properties 11 LLC,One Bryant Park,New York,New York,212-257-6550,10036,MANHATTAN,105,40.755355,-73.984248,4,1087268,1009950033,119,MN0502
08/09/2023 12:00:00 AM,"La Perla Designs, Inc.",190 Atlantic Avenue,Garden City,New York,517-220-0289,11040,,,,,,,,,
08/09/2023 12:00:00 AM,"Sam Tell and Sons, Inc.",300 Smith Street,Farmingdale,New York,631-501-9700,11735,,,,,,,,,
08/16/2023 12:00:00 AM,Innocore Pro Elevator,154-05 Barclay Avenue,Flushing,New York,718-971-1666,11355,QUEENS,407,40.762139,-73.81069,20,4120318,4053260064,1167,QN0704
08/16/2023 12:00:00 AM,JSP Electrical Contracting Corp.,178 Industrial Loop,Staten Island,New York,718-554-4180,10309,STATEN IS,503,40.550003,-74.230882,51,5104533,5072060145,22602,SI0305
08/17/2023 12:00:00 AM,BLDG Orchard LLC,417 Fifth Ave,New York,New York,226-244-4300,10016,MANHATTAN,105,40.750691,-73.982907,4,1017224,1008670070,82,MN0502
08/17/2023 12:00:00 AM,"Commercial Furniture Interiors, Inc.",1154 Route 22,Mountainside,New Jersey,908-518-1670,07092,,,,,,,,,
08/17/2023 12:00:00 AM,Triton Construction Company LLC,550 7th Avenue,New York,New York,212-388-5700,10018,MANHATTAN,105,40.754468,-73.988103,3,1014501,1007890036,113,MN0502
08/18/2023 12:00:00 AM,Platinum Services NY LLC,53-28 11th Street,Long Island City,New York,212-253-2900,11101,QUEENS,402,40.740167,-73.952529,26,4436595,4000380016,104,QN0201
08/21/2023 12:00:00 AM,Eastbound Construction,431 Washington Street,New York,New York,917-291-0856,10013,MANHATTAN,101,40.723088,-74.010405,1,1002903,1002230023,39,MN0102
08/21/2023 12:00:00 AM,Forward Mechanical Corp,59-68 55th Dr,Maspeth,New York,718-956-1900,11368,QUEENS,405,40.725941,-73.907029,30,4059950,4026880044,531,QN0501
08/22/2023 12:00:00 AM,Cardoza Plumbing Corp.,35-37 36th Sreet,Astoria,New York,718-523-7900,11106,QUEENS,,,,,,,,
08/23/2023 12:00:00 AM,LSS Leasing Limited Liability Company,"c/o Lefrak, 40 West 57th Street",New York,New York,212-708-6980,10019,MANHATTAN,,,,,,,,
08/23/2023 12:00:00 AM,One Penn Plaza LLC,888 Seventh Avenue,New York,New York,212-894-7000,10019,MANHATTAN,105,40.765015,-73.980416,6,1024895,1010280029,137,MN0502
08/24/2023 12:00:00 AM,"Metro R. Services, Inc.",20 Universal Place,Carlstadt,New Jersey,201-488-2091,07072,,,,,,,,,
08/24/2023 12:00:00 AM,Rehab and Design Construction Corp,45 E 24th St,Huntington,New York,716-322-4535,11746,,,,,,,,,
08/25/2023 12:00:00 AM,Hi-Lume Corp.,175 Kennedy Drive,Hauppauge,New York,631-421-1727,11788,,,,,,,,,
08/29/2023 12:00:00 AM,15 Parkville LLC,3611 14th Avenue,Brooklyn,New York,718-819-3251,11218,BROOKLYN,312,40.640848,-73.982459,39,3125035,3053490001,228,BK1202
08/30/2023 12:00:00 AM,"D-Star Waterproofers, Inc.",365 Babyton Turnpike,Roosevelt,New York,516-378-6660,11575,,,,,,,,,
08/31/2023 12:00:00 AM,"LV Electrical Solutions, Inc.",28 Maple Place,Manhasset,New York,516-790-0834,11030,,,,,,,,,
08/31/2023 12:00:00 AM,Myrtle 6 LLC,89 Bartlett Street,Brooklyn,New York,718-387-8282,11206,BROOKLYN,301,40.702105,-73.944975,33,3424167,3022707501,507,BK0103
08/31/2023 12:00:00 AM,V.A.N. Construction Corp.,3431 Guider Avenue,Brooklyn,New York,929-327-2969,11235,BROOKLYN,315,40.582949,-73.958163,48,3425790,3088100096,608,BK1503
09/05/2023 12:00:00 AM,NYEG,123 Melrose Street,Brooklyn,North Carolina,646-824-1799,11206,BROOKLYN,304,40.699546,-73.933007,34,3426367,3031520048,391,BK0401
09/05/2023 12:00:00 AM,The Fulcrum Group,60 Park Place,Newark,New Jersey,212-463-0519,07102,,,,,,,,,
09/07/2023 12:00:00 AM,"Air Flex Industrial, Inc.",965 Conklin Street,Farmingdale,New York,631-752-1219,11735,,,,,,,,,
09/08/2023 12:00:00 AM,"Lacor Mechanical Systems, Inc.",7 West 36th Street,New York,New York,212-233-5607,10018,MANHATTAN,105,40.749934,-73.984094,4,1015933,1008380036,84,MN0502
09/08/2023 12:00:00 AM,"Raising Cane's Restaurants, L.L.C.",6800 Bishop Road,Plano,Texas,972-769-3311,75024,,,,,,,,,
09/08/2023 12:00:00 AM,Topline Drywall Inc,11 Jackson Ave,Tuckahoe,New York,916-665-5451,10707,,,,,,,,,
09/12/2023 12:00:00 AM,2776 Ocean Avenue LLC,2952 Bridgton 3rd Street,Brooklyn,New York,646-591-3310,11235,BROOKLYN,,,,,,,,
09/12/2023 12:00:00 AM,"Bloomsburg Carpet Industries, Inc.",11 East 26th Street,New York,New York,570-784-9188,10010,MANHATTAN,105,40.743188,-73.98755,3,1016876,1008560009,56,MN0501
09/14/2023 12:00:00 AM,368 Broome Street Owner LLC,346 Park Avenue,New York,New York,212-407-4078,10154,MANHATTAN,105,40.758166,-73.973278,4,1035473,1012870033,102,MN0502
09/14/2023 12:00:00 AM,MADDD Equities LLC,15 Verbena Avenue,Floral Park,New York,516-821-2003,11001,QUEENS,,,,,,,,
09/14/2023 12:00:00 AM,"Miller Druck Specialty Contracting, Inc.",264 W. 40th Street,New York,New York,646-596-6752,10018,MANHATTAN,105,40.75547,-73.989616,3,1014511,1007890075,113,MN0502
09/14/2023 12:00:00 AM,SEAL Security LLC dba Silverseal,60 Broad Street,New York,New York,212-732-1897,10004,MANHATTAN,101,40.705351,-74.011502,1,1000817,1000240001,9,MN0101
09/15/2023 12:00:00 AM,"NFI Co., Inc.",139 Van Winkle Avenue,Garfield,New Jersey,973-478-3486,07026,,,,,,,,,
09/18/2023 12:00:00 AM,Emmons Project LLC,2027 Emmons Avenue,Brooklyn,New York,212-882-1808,11235,BROOKLYN,315,40.583726,-73.947232,48,3392752,3087790053,608,BK1503
09/19/2023 12:00:00 AM,"Certus Controls, LLC",154 Toledo Street,Farmingdale,New York,631-755-9797,11735,,,,,,,,,
09/20/2023 12:00:00 AM,Moriches Contracting,547 Nirucges Riad,Saint James,New York,631-584-6781,11780,,,,,,,,,
09/21/2023 12:00:00 AM,AZ 215th LLC,40 Fulton Street,New York,New York,212-414-9414,10038,MANHATTAN,101,40.707904,-74.004411,1,1075618,1000750021,1502,MN0101
09/22/2023 12:00:00 AM,Automated Logic,100 Delawanna Avenue,Clifton,New Jersey,973-518-8782,07014,,,,,,,,,
09/22/2023 12:00:00 AM,Axon Construction Inc.,58-48 254th Street,Little Neck,New York,347-608-8785,11362,QUEENS,411,40.761181,-73.726123,23,4172958,4083490090,152902,QN1103
09/22/2023 12:00:00 AM,Jacobs Development Corp.,1400 Avenue Z,Brooklyn,New York,347-424-1100,11235,BROOKLYN,315,40.587869,-73.955125,48,3389066,3074590001,606,BK1503
09/22/2023 12:00:00 AM,October Sky LLC,2063 Homecrest Avenue,Brooklyn,New York,718-336-0981,11229,BROOKLYN,315,40.599443,-73.959344,48,3197993,3073170056,582,BK1501
09/25/2023 12:00:00 AM,Valmar Electric Corp.,40-02 Oser Avenue,Hauppauge,New York,631-813-1500,11788,,,,,,,,,
09/26/2023 12:00:00 AM,Reva Holding Corp.,6701 Bay Parkway,Brooklyn,New York,718-265-1200,11204,BROOKLYN,311,40.612602,-73.982733,43,3173207,3065760010,430,BK1101
10/03/2023 12:00:00 AM,BCSP-K 875 Property LLC,150 East 52nd Street,New York,New York,617-457-0400,10123,MANHATTAN,106,40.757534,-73.970965,4,1036463,1013060042,100,MN0604
10/03/2023 12:00:00 AM,"RLF III Laurel Hill SPE, LLC",201 West Street,Annapolis,Maryland,410-280-1100,21401,,,,,,,,,
10/06/2023 12:00:00 AM,"Metro Fire Protection, Inc.",150 Jerusalem Avenue,Massapequa,New York,516-223-1941,11758,,,,,,,,,
10/10/2023 12:00:00 AM,ARC COM,33 Ramland Road,South Orangeburg,New York,845-365-1100,10962,,,,,,,,,
10/10/2023 12:00:00 AM,Berry on the Park Holdings LLC,320 Roebling Street,Brooklyn,New York,347-724-1903,11211,BROOKLYN,301,40.70879,-73.960912,34,3059630,3021390025,525,BK0102
10/10/2023 12:00:00 AM,"CBG Builders, Inc.",231 W. 29th Street,New York,New York,212-390-8380,10001,MANHATTAN,105,40.748299,-73.993937,3,1014283,1007790017,95,MN0501
10/11/2023 12:00:00 AM,"Bigman Brothers, Inc.",43-40 34th Street,Long Island City,New York,718-786-1421,11101,QUEENS,402,40.745613,-73.930554,26,4003425,4002430042,17902,QN0202
10/12/2023 12:00:00 AM,BCG Glass Industry Inc.,41-75 Bowne Street,Queens,New York,917-809-9399,11355,QUEENS,407,40.757651,-73.822662,20,4117064,4051830008,857,QN0707
10/16/2023 12:00:00 AM,Builders Construction NYC Inc.,9729 64th Road,Rego Park,New York,718-699-3588,11374,QUEENS,406,40.729381,-73.858958,29,4622920,4020917502,71701,QN0601
10/16/2023 12:00:00 AM,Tristar Construction,770 Lexington Avenue,New York,New York,212-486-0808,10065,MANHATTAN,108,40.763097,-73.967562,4,1041920,1013950017,11402,MN0802
10/18/2023 12:00:00 AM,2005-2009 3rd Ave Qoz LLC,1870 Bath Avenue,Brooklyn,New York,917-697-6162,11214,BROOKLYN,311,40.602892,-74.004296,47,3329125,3064380037,280,BK1102
10/18/2023 12:00:00 AM,"Callendar & Willette, Inc.",2019 Nostrand Avenue,Brooklyn,New York,347-865-2575,11210,BROOKLYN,317,40.635927,-73.947969,45,3336203,3050050041,78602,BK1702
10/18/2023 12:00:00 AM,"Gannon Contracting, LLC",49 West 38th Street,New York,New York,212-382-4210,10018,MANHATTAN,105,40.751635,-73.984307,4,1015992,1008400013,84,MN0502
10/18/2023 12:00:00 AM,Montefiore Medical Center,111 East 210th Street,Bronx,New York,718-920-4869,10467,BRONX,207,40.879885,-73.880481,11,2096399,2033270001,421,BX0703
10/18/2023 12:00:00 AM,Rybak Development Corp.,227 Sea Breeze Avenue,Brooklyn,New York,718-758-5333,11224,BROOKLYN,313,40.575871,-73.971418,48,3425435,3072807501,35602,BK1302
10/20/2023 12:00:00 AM,SIG 314 Rutledge LLC,199 Lee Avenue,Brooklyn,New York,718-810-9914,11211,BROOKLYN,301,40.701995,-73.955762,33,3060998,3022260001,533,BK0103
10/23/2023 12:00:00 AM,Bical Development Inc.,2859 Flatbush Avenue,Brooklyn,New York,718-484-6900,11234,BROOKLYN,318,40.602039,-73.914033,46,3425369,3085910150,70202,BK5691
10/23/2023 12:00:00 AM,Empire General Contracting & Painting Corp.,115 Main Street,Tuckahoe,New York,516-523-5504,10707,,,,,,,,,
10/23/2023 12:00:00 AM,"JCT Development NY, Inc.",399 Knowllwood Road,White Plains,New York,201-253-3490,10603,,,,,,,,,
10/24/2023 12:00:00 AM,Circle Rose Contracting Inc.,20 Cresthollow Court,Farmingdale,New York,516-404-8008,11735,,,,,,,,,
10/25/2023 12:00:00 AM,3240 Partners LLC,99 W. Hawthorne Avenue,Valley Stream,New York,212-430-2190,11580,,,,,,,,,
10/25/2023 12:00:00 AM,ADCO Electrical Corporation,201 Edward Curry Avenue,Staten Island,New York,718-494-4400,10314,STATEN IS,502,40.610615,-74.184691,50,5151772,5017800200,29102,SI0204
10/25/2023 12:00:00 AM,Metro Builders Group,500 N Franklin Turnpike,Ramsey,New Jersey,212-954-0107,07446,,,,,,,,,
10/27/2023 12:00:00 AM,Flushing Northern LLC,144 Sanford Avenue,Flushing,New York,347-506-0374,11355,QUEENS,,,,,,,,
10/27/2023 12:00:00 AM,Green House Town Corp.,157-144 Sandford Avenue,Flushing,New York,917-618-8615,11355,QUEENS,,,,,,,,
10/30/2023 12:00:00 AM,214 Ditmas LLC,1704 48th Street,Brooklyn,New York,718-435-5522,11204,BROOKLYN,312,40.62985,-73.982059,44,,,474,BK1202
10/30/2023 12:00:00 AM,LIF Industries LLC,5 Harbor Park Drive,Port Washington,New York,516-390-6881,11050,,,,,,,,,
11/01/2023 12:00:00 AM,Starline Holdings LLC,168 Georgetown Road,Canonsburg,Pennsylvania,800-245-6378,15317,,,,,,,,,
11/03/2023 12:00:00 AM,CPBSPE LLC,36-36 Main Street,Flushing,New York,347-321-6191,11354,QUEENS,407,40.762306,-73.831583,20,4540141,4049717502,869,QN0707
11/03/2023 12:00:00 AM,J.M. Haley Corporation,151 Toledo Street,Farmingdale,New York,516-315-4590,11735,,,,,,,,,
11/06/2023 12:00:00 AM,Avdoo & Partners Construction,221 West 37th Street,New York,New York,214-912-9608,10018,MANHATTAN,105,40.753253,-73.990067,3,1014458,1007870031,109,MN0502
11/06/2023 12:00:00 AM,Paladin Technologies,12 West 21st Street,New York,New York,647-991-6811,10010,MANHATTAN,105,40.740558,-73.991238,3,1015502,1008220049,54,MN0501
11/13/2023 12:00:00 AM,Capstone Contracting Corp.,3724 24th Street,Long Island City,New York,917-600-3958,11101,QUEENS,401,40.757018,-73.935833,26,4439111,4003660001,3302,QN0105
11/13/2023 12:00:00 AM,Chelsea Lighting,225 W. 34th Street,New York,New York,212-356-5120,10122,MANHATTAN,105,40.751483,-73.991764,3,1014402,1007840019,109,MN0502
11/14/2023 12:00:00 AM,Delta Green Electric,3808 Union Street,Flushing,New York,718-886-2885,11354,QUEENS,407,40.761533,-73.827091,20,4607310,4049787502,871,QN0707
11/20/2023 12:00:00 AM,"Asco Power Services, Inc.",160 Park Avenue,Florham Park,New York,512-618-8436,07932,,,,,,,,,
11/20/2023 12:00:00 AM,"ASCO Power Services, Inc.",160 Park Avenue,Florham Park,New Jersey,512-618-8343,07932,,,,,,,,,
11/20/2023 12:00:00 AM,Delta HVAC,710 Avenue U,Brooklyn,New York,212-201-0702,11223,BROOKLYN,315,40.598003,-73.963868,48,3410005,3071340003,392,BK1501
11/21/2023 12:00:00 AM,"2803 Boston Road, LLC",1221 Fteley Avenue,Bronx,New York,718-893-0457,10472,BRONX,209,40.829913,-73.871714,18,2024027,2037470001,68,BX0901
11/21/2023 12:00:00 AM,Consulting Remodeling Inc.,1221 Fteley Avenue,Bronx,New York,718-893-0457,10472,BRONX,209,40.829913,-73.871714,18,2024027,2037470001,68,BX0901
11/24/2023 12:00:00 AM,EAG Brooklyn Motors LLC,1026 East Jericho Turnpike,Huntington,New York,516-996-8087,11746,,,,,,,,,
11/24/2023 12:00:00 AM,RFP Construction Inc.,81 Saxon Avenue,Bay Shore,New York,631-707-3661,11706,,,,,,,,,
11/28/2023 12:00:00 AM,Building Concepts,300 Broadway,Bethpage,New York,516-333-4500,11714,,,,,,,,,
11/28/2023 12:00:00 AM,New Age Development LLC,144-25 Sandford Avenue,Flushing,New York,347-506-0374,11355,QUEENS,,,,,,,,
11/29/2023 12:00:00 AM,Forest Brook Electrical Contractors Inc.,2906 Shell Road,Brooklyn,New York,917-662-7021,11224,BROOKLYN,313,40.58171,-73.975394,47,3196287,3072470260,348,BK1302
11/30/2023 12:00:00 AM,"City Builders NYC, LLC",5501 New Utrecht Avenue,Brooklyn,New York,718-701-7000,11219,BROOKLYN,312,40.631457,-73.995482,44,3139762,3056847503,240,BK1202
11/30/2023 12:00:00 AM,Nostrand Land LLC,2233 Nostrand Avenue,Brooklyn,New York,917-439-3832,11210,BROOKLYN,314,40.629998,-73.947394,45,3206438,3075760021,774,BK1401
12/04/2023 12:00:00 AM,CIty Stone Line,61-35 138th Street,Flushing,New York,646-269-7850,11367,QUEENS,407,40.741819,-73.827897,20,4443861,4063880019,80302,QN0706
12/04/2023 12:00:00 AM,Demar Plumbing Corp.,147 Attorney Street,New York,New York,212-614-9717,10002,MANHATTAN,103,40.720216,-73.983532,2,1004280,1003500073,2201,MN0302
12/04/2023 12:00:00 AM,Tristate Air Conditioning Inc.,113 Bloomingdale Road,Hicksville,New York,718-776-7010,11801,,,,,,,,,
12/04/2023 12:00:00 AM,Wolf Construction Corporation,56 West 45th Street,New York,New York,212- 203-3717,10036,MANHATTAN,105,40.756142,-73.981245,4,1034235,1012600064,96,MN0502
12/13/2023 12:00:00 AM,Bayridge Partners LLC,99 Hawthorne Avenue,Valley Stream,New York,212-430-2190,11580,,,,,,,,,
12/14/2023 12:00:00 AM,Brook NY Residential LLC,233 Broadway,New York,New York,212-672-4701,10279,MANHATTAN,101,40.712265,-74.007892,1,1087167,1001237501,21,MN0102
12/14/2023 12:00:00 AM,SCG America Construction Inc.,1500 Broadway,New York,New York,917-670-6118,10036,MANHATTAN,105,40.756856,-73.985973,4,1022610,1009960001,119,MN0502
12/18/2023 12:00:00 AM,GDO Contracting,10-34 44th Drive,Long Island City,New York,917-613-4352,11101,QUEENS,402,40.748771,-73.950851,26,4000431,4000510028,702,QN0201
12/18/2023 12:00:00 AM,"The 3111 Town, LLC",31-19 Newtown Avenue,Astoria,New York,718-289-2222,11102,QUEENS,401,40.767438,-73.920625,22,4539970,4006190014,71,QN0103
12/19/2023 12:00:00 AM,1934 Shore Enterprise LLC,93 Romer Road,Staten Island,New York,646-479-6699,10304,STATEN IS,502,40.591384,-74.105389,50,5022688,5008710093,17701,SI0203
12/21/2023 12:00:00 AM,Blondies Tree House,242 West 30th Street,New York,New York,914-777-6300,10001,MANHATTAN,105,40.749004,-73.993742,3,1014303,1007790066,95,MN0501
12/21/2023 12:00:00 AM,Jackson Jamaica Opportunity LLC,45 Broadway c/o The Jackson Group LLC,New York,New York,212-575-2442,10006,MANHATTAN,101,40.706397,-74.012829,1,1000804,1000200009,13,MN0101
01/03/2024 12:00:00 AM,"Humphrey Rich Construction Group, Inc.",10200 Old Columbia Road,Columbia,Maryland,301-330-1650,21046,,,,,,,,,
01/03/2024 12:00:00 AM,"SIP NY Acquisition, LLC",23 East 4th Street,New York,New York,917-226-4701,10003,MANHATTAN,102,40.727713,-73.992806,2,1080086,1005440001,57,MN0202
01/04/2024 12:00:00 AM,1555 60th Street Development JV LLC,1555 60th Street,Brooklyn,New York,718-977-5666,11219,BROOKLYN,312,40.625533,-73.993055,44,3131697,3055090058,242,BK1202
01/04/2024 12:00:00 AM,Hae Air LLC,3702 Horseblock Road,Medford,New York,631-924-2180,11763,,,,,,,,,
01/04/2024 12:00:00 AM,Infinium Wall Systems,2100 Infiniym Way,Srongsville,Ohio,440-572-5000,44149,,,,,,,,,
01/04/2024 12:00:00 AM,"Orange County Ironworks, LLC",36 Maybrook Road,Montgomery,New York,845-769-3001,12549,,,,,,,,,
01/08/2024 12:00:00 AM,Dal-Tile,6760 Gravel Ave.,Alexandria,Virginia,703-971-8485,22310,,,,,,,,,
01/09/2024 12:00:00 AM,VB Utica Crescent Owner LLC,155 Third Street,Brooklyn,New York,718-576-3633,11231,BROOKLYN,306,40.676493,-73.990915,39,,,77,BK0601
01/10/2024 12:00:00 AM,Franklin Point Holding LLC,187 Lafayette Street,New York,New York,516-466-8001,10013,MANHATTAN,102,40.720753,-73.998445,1,1007001,1004720010,45,MN0201
01/16/2024 12:00:00 AM,2702-2712 Emmons LLC,2027 Emmons Avenue,Brooklyn,New York,212-882-1808,11235,BROOKLYN,315,40.583726,-73.947232,48,3392752,3087790053,608,BK1503
01/16/2024 12:00:00 AM,Dextera Construction LLC,1900 Grand Avenue,Baldwin,New York,917-273-3450,11510,,,,,,,,,
01/17/2024 12:00:00 AM,Ardsley Construction Services LLC,33 Bartlett Street,Brooklyn,New York,929-226-5079,11206,BROOKLYN,301,40.70083,-73.946938,33,3335481,3022690051,507,BK0103
01/17/2024 12:00:00 AM,"Q.Y. Electric, Inc.",6501 11th Avenue,Brooklyn,New York,718-333-9888,11219,BROOKLYN,310,40.628547,-74.006013,43,3142214,3057520009,212,BK1002
01/19/2024 12:00:00 AM,Eagle One Roofing Contractors Inc.,18-60 45th Street,Astoria,New York,718-626-2108,11105,QUEENS,401,40.777055,-73.895588,22,4015244,4007900069,12301,QN0101
01/19/2024 12:00:00 AM,International Office Concept USA Inc. DBA IOC Project 6 LLC,110 Greene Street,New York,New York,212-334-4617,10012,MANHATTAN,102,40.724524,-73.99974,1,1007605,1004990007,49,MN0201
01/22/2024 12:00:00 AM,"B.R. Fries & Associates, LLC",34 West 32nd Street,New York,New York,212-563-3300,10001,MANHATTAN,105,40.747826,-73.987101,3,1015832,1008330063,76,MN0501
01/22/2024 12:00:00 AM,DiMaio Millwork Corp.,12 Bright Place,Yonkers,New York,914-476-1937,10705,,,,,,,,,
01/22/2024 12:00:00 AM,G & L Popian,151 Brookdale Drive,Yonkers,New York,646-407-5056,10710,,,,,,,,,
01/23/2024 12:00:00 AM,149 Investors LLC,731 Main Street,New Rochelle,New York,917-939-9667,10801,,,,,,,,,
01/23/2024 12:00:00 AM,All Borough Group Service Inc.,99 Jericho Turnpike,Jericho,New York,516-333-3720,11753,,,,,,,,,
01/24/2024 12:00:00 AM,N.Y. Premier Landscapes,63 Flushing Avenue,Brooklyn,New York,917-500-7223,11205,BROOKLYN,302,40.69802,-73.974986,33,3335129,3020230001,543,BK0261
01/25/2024 12:00:00 AM,"H.O. Penn Machinery Company, Inc.",20 Platinum Court,Medford,New York,845-437-4002,11763,,,,,,,,,
01/29/2024 12:00:00 AM,Shawmut Design & Construction,560 Harrison Avenue,Boston,Massachusetts,212-920-8900,02118,,,,,,,,,
01/30/2024 12:00:00 AM,Enright Marble & Tile Corp.,59-50 56th Road,Maspeth,New York,718-416-1900,11378,QUEENS,405,40.724591,-73.907352,30,4059990,4026900042,531,QN0501
01/30/2024 12:00:00 AM,"Feature Walters, A Division of Walters Inc.",1318 Rymal Road East,Hamilton,Federated States Of Micronesia,905-388-7111,,,,,,,,,,
01/30/2024 12:00:00 AM,"Fred Geller Electrical, Inc.",54-15 38th Avenue,Woodside,New York,718-350-3903,11377,QUEENS,402,40.750046,-73.908111,26,4000000,4012090020,255,QN0203
01/30/2024 12:00:00 AM,Godsell Construction Corporation,351 Duffy Avenue,Hicksville,New York,516-939-0280,11801,,,,,,,,,
01/30/2024 12:00:00 AM,"Newco Iron Works, LTD",47-47 31st Place,Long Island City,New York,718-752-1650,11101,QUEENS,402,40.741894,-73.935072,26,4003537,4002800005,19901,QN0202
02/07/2024 12:00:00 AM,89-40 Realty LLC,3 Dakota Drive,New Hyde Park,New York,516-353-7779,11042,,,,,,,,,
02/08/2024 12:00:00 AM,"110 Beard Street, LLC",3347 Michelson Drive,Irvine,California,949-955-9336,92612,,,,,,,,,
02/08/2024 12:00:00 AM,"G-Tech Elevator Associates, LLC",330 Dalziel Road,Linden,New Jersey,866-658-9296,07036,,,,,,,,,
02/08/2024 12:00:00 AM,GWA Mechanical Inc.,242 Hudson Street,Hackensack,New Jersey,917-873-4002,07601,,,,,,,,,
02/08/2024 12:00:00 AM,"J. Petrocelli Contracting, Inc.",100 Comac Street,Ronkonkoma,New York,631-981-5200,11779,,,,,,,,,
02/09/2024 12:00:00 AM,Great Empire 65 Realty LLC,139 Centre Street,New York,New York,732-586-9836,10003,MANHATTAN,101,40.717217,-74.000602,1,1002357,1001977502,31,MN0102
02/16/2024 12:00:00 AM,"Kaback Enterprises, Inc.",318 West 39th Street,New York,New York,212-645-5100,10018,MANHATTAN,104,40.755657,-73.991976,3,1013650,1007620050,115,MN0402
02/20/2024 12:00:00 AM,67 Taaffe LLC,75 Taaffe Place,Brooklyn,New York,646-294-0428,11205,BROOKLYN,303,40.696724,-73.960695,33,3054190,3018830005,1237,BK0301
02/20/2024 12:00:00 AM,Blustone Contracting LLC,65 Taaffe Place,Brooklyn,New York,718-534-0330,11205,BROOKLYN,303,40.69696,-73.960746,33,3054192,3018830010,1237,BK0301
02/20/2024 12:00:00 AM,"Manhattan Interior Contracting Co., Inc.",79 Pleasant Ridge Road,Harrison,New York,718-361-0603,10528,,,,,,,,,
02/23/2024 12:00:00 AM,"Marvel Contracting Service, Inc.",58-19 230th Street,Oakland Gardens,New York,718-225-2316,11364,QUEENS,411,40.752735,-73.748893,23,4161908,4075660001,138501,QN1102
02/26/2024 12:00:00 AM,City Suburban Plumbing Corp.,448 Fifth Avenue,Pelham,New York,914-738-0894,10803,,,,,,,,,
02/27/2024 12:00:00 AM,"Alexander Wolf & Son a division of A.W. & S Construction Co., Inc.",747 Third venue,New York,New York,646-584-1320,10017,MANHATTAN,,,,,,,,
02/27/2024 12:00:00 AM,Madison Construction Consultants Corporation,7605 12th Avenue,Brooklyn,New York,718-701-9736,11228,BROOKLYN,310,40.620927,-74.010353,38,3160544,3062320008,200,BK1002
02/27/2024 12:00:00 AM,"Piedmont 60 Broad Street, LLC","1201 Eye Street, NW",Washington,Washington,202-651-6434,20005,,,,,,,,,
03/04/2024 12:00:00 AM,"E. Friedman Commercial Kitchens, LLC",368 New Hemstead Road,New City,New York,718-249-2362,10956,,,,,,,,,
03/05/2024 12:00:00 AM,AMG Glasstechnick Lt.d,999 South Oyster Bay Road,Bethpage,New York,516-605-1554,11714,,,,,,,,,
03/05/2024 12:00:00 AM,MB 108 Merrick Realty LLC,1026 Eas Jericho Turnpike,Huntington,New York,516-996-8087,11746,,,,,,,,,
03/05/2024 12:00:00 AM,Nelson Air Device Corporation,46-28 54th Avenue,Maspeth,New York,718-229-3801,11378,QUEENS,402,40.731562,-73.921375,26,4311636,4025450023,205,QN0202
03/05/2024 12:00:00 AM,Penta Restoration Corp.,24-11 41st Avenue,Long Island City,New York,718-706-7800,11101,QUEENS,401,40.752557,-73.939696,26,4307209,4004070004,3302,QN0105
03/05/2024 12:00:00 AM,Raiden Electric LLC,11 Broadway,New York,New York,212-457-1589,10004,MANHATTAN,101,40.705354,-74.013731,1,1000044,1000130005,13,MN0101
03/07/2024 12:00:00 AM,False Alarm Ltd.,816 Avenue I,Brooklyn,New York,347-922-8123,11230,BROOKLYN,312,40.62686,-73.968233,44,3170913,3065210006,458,BK1204
03/07/2024 12:00:00 AM,Spearhead Contracting LLC,816 Avenue I,Brooklyn,New York,347-922-8123,11249,BROOKLYN,312,40.62686,-73.968233,44,3170913,3065210006,458,BK1204
03/11/2024 12:00:00 AM,Klima New York LLC,41-45 39th Street,Long Island City,New York,212-678-5100,11104,QUEENS,402,40.747133,-73.925517,26,4002421,4001870001,17901,QN0202
03/12/2024 12:00:00 AM,703 Midwood LLC,692 Thomas S Boyland Street,Brooklyn,New York,347-245-2020,11212,BROOKLYN,316,40.663902,-73.912194,41,3326654,3035570045,898,BK1602
03/12/2024 12:00:00 AM,Rock Builders Inc.,670 Myrtle Avenue,Brooklyn,New York,929-236-1000,11205,BROOKLYN,303,40.694447,-73.95722,33,3334944,3019137515,235,BK0301
03/14/2024 12:00:00 AM,Bronx River Hotel LLC,1300 Tonnelle Avenue,North Bergen,New Jersey,201-294-1511,07047,,,,,,,,,
03/18/2024 12:00:00 AM,159 Broadway Owner LLC,520 Madison Avenue,New York,New York,646-747-2235,10022,MANHATTAN,105,40.760107,-73.974768,4,1035727,1012890014,102,MN0502
03/20/2024 12:00:00 AM,Marlin Inc.,363 7th Ave,New York,New York,212-967-2121,10001,MANHATTAN,105,40.748609,-73.992349,3,1015154,1008060001,101,MN0501
03/25/2024 12:00:00 AM,Edge Construction and Concrete LLC,670 Myrtle Avenue,Brooklyn,New York,718-925-2998,11205,BROOKLYN,303,40.694447,-73.95722,33,3334944,3019137515,235,BK0301
03/26/2024 12:00:00 AM,1499 Bruckner LLC,99 W Hawthorne Avenue,Valley Sream,New York,212-430-2190,11580,,,,,,,,,
03/26/2024 12:00:00 AM,IUV Phase 1 Owner LLC,432 Park Avenue South,New York,New York,212-599-0520,10016,MANHATTAN,105,40.744257,-73.98341,2,1016934,1008590039,74,MN0501
04/01/2024 12:00:00 AM,GAJ Division Corp.,900 South 2nd Street,Ronkonkoma,New York,631-972-5001,11779,,,,,,,,,
04/01/2024 12:00:00 AM,InDetail LLC,4305 215th Place,Bayside,New York,646-549-8625,11361,,411,40.761751,-73.766912,19,4314820,4063090046,1471,QN1102
04/04/2024 12:00:00 AM,86 ST NY LLC,238 Causeway,Lawrence,New York,718-846-7443,11559,,,,,,,,,
04/04/2024 12:00:00 AM,Everlast Solutions Corp.,554 Fairview Avenue,Ridgewood,New York,718-366-0661,11385,QUEENS,405,40.708016,-73.908064,30,4080868,4033900036,591,QN0502
04/04/2024 12:00:00 AM,Kota Drywall Corp.,4233 Arthur Kill Rd,Staten Island,New York,718-816-0604,10309,,503,40.538986,-74.237471,51,5000000,5073850001,22602,SI0305
04/04/2024 12:00:00 AM,Richmond Valley RD LLC,238 Causeway,Lawrence,New York,718-846-7443,11559,,,,,,,,,
04/12/2024 12:00:00 AM,JFK Hotel Partners LLC,420 Great Neck Road,Great Neck,New York,516-773-9300,11021,,,,,,,,,
04/12/2024 12:00:00 AM,John Mini Distinctive Landscapes,250 Brenner Drive,Congers,New York,212-213-3200,10920,,,,,,,,,
04/16/2024 12:00:00 AM,Construction Parters Corp.,420 8th Avenue,Brooklyn,New York,646-286-8833,11215,BROOKLYN,306,40.668597,-73.976861,39,3025524,3010827502,155,BK0602
04/16/2024 12:00:00 AM,Knish Royale LLC,486 Hart Street,Brooklyn,New York,917-856-2256,11221,BROOKLYN,304,40.695467,-73.931334,34,3326299,3032250041,393,BK0401
04/16/2024 12:00:00 AM,You Get A Pickle With Your Painting LLC,233 Banker Street,Brooklyn,New York,917-885-0283,11222,BROOKLYN,301,40.725671,-73.955891,33,3065486,3026160001,561,BK0101
04/22/2024 12:00:00 AM,Braga Corp.,98 Snediker Avenue,Brooklyn,New York,718-922-8700,11207,BROOKLYN,305,40.673086,-73.901962,37,3083630,3036970024,1144,BK0502
04/22/2024 12:00:00 AM,Prime Glass Inc.,6419 Central Ave,Ridgewood,New York,718-576-3139,11385,QUEENS,405,40.70204,-73.892027,30,4088390,4036410015,579,QN0503
04/23/2024 12:00:00 AM,"59 Maiden Lane Associates, LLC",250 Broadway,New York,New York,212-619-6930,10007,MANHATTAN,101,40.712982,-74.007301,1,1001408,1001247502,21,MN0102
04/26/2024 12:00:00 AM,Donaldson Interiors Inc.,150 Wireless Blvd.,Hauppauge,New York,631-952-0800,11788,,,,,,,,,
04/26/2024 12:00:00 AM,Irwin Seating Company,3251 Fruit Ridge Avenue NW,Grand Rapids,Michigan,616-574-7400,49544,,,,,,,,,
05/01/2024 12:00:00 AM,"1799 Westchester Avenue, LLC",1 New King Street,West Harrison,New York,914-448-8300,10604,,,,,,,,,
05/01/2024 12:00:00 AM,DHI Construction Services Inc.,3000 Marcus Avenue,New Hyde Park,New York,718-639-3200,11042,,,,,,,,,
05/01/2024 12:00:00 AM,P.I. Mechanical Corp.,338 37th Street,Brooklyn,New York,212-229-1775,11232,BROOKLYN,307,40.654403,-74.006109,38,3000000,3007000019,84,BK0702
05/03/2024 12:00:00 AM,"Tri-Tech Communications, Inc.",625 Locust Street,Garden City,New York,917-697-5234,11530,,,,,,,,,
05/06/2024 12:00:00 AM,Johnson Controls Fire Protection LP,60 East 42nd Street,New York,New York,414-524-3235,10165,MANHATTAN,105,40.752532,-73.978662,4,1035335,1012760042,82,MN0502
05/09/2024 12:00:00 AM,Gilbar Industries,498 7th Avenue,New York,New York,212-331-8272,10018,MANHATTAN,105,40.752808,-73.98932,3,1014445,1007860051,109,MN0502
05/09/2024 12:00:00 AM,Palatial Concrete Ltd.,215 Edwards Ave,Calvutun,New York,631-369-9650,11933,,,,,,,,,
05/10/2024 12:00:00 AM,6418 8th Avenue Realty LLC,2307 West 13th Street,Brooklyn,New York,917-417-8813,11223,BROOKLYN,313,40.590863,-73.983117,47,3194215,3071610074,382,BK1301
05/10/2024 12:00:00 AM,Xinye Construction Inc.,131-03 40th Road,Flushing,New York,646-920-2273,11354,QUEENS,407,40.755898,-73.836119,20,4616038,4050667506,871,QN0707
05/15/2024 12:00:00 AM,"Agate Construction Company, Inc.",2819 Fire Road,Egg Harbor Township,New Jersey,609-624-9090,08234,,,,,,,,,
05/15/2024 12:00:00 AM,"Midas Brooklyn, LLC",1804 Borman Circle Drive,St Louis,Montana,314-692-0100,63146,,,,,,,,,
05/15/2024 12:00:00 AM,Village Road Development LLC,4320 3rd Avenue,New York,New York,917-915-3029,11232,MANHATTAN,307,40.651285,-74.010858,38,3010903,3007270047,2,BK0702
05/16/2024 12:00:00 AM,Kamco Supply Corp.,80 21st Street,Brooklyn,New York,718-768-1234,11232,BROOKLYN,307,40.664408,-73.998432,38,3009123,3006350100,1801,BK0702
05/16/2024 12:00:00 AM,Redhead Builders LLC DBA 5 Elements West,380 Lexington Avenue,New York,New York,212-661-7557,10165,MANHATTAN,105,40.751036,-73.97636,4,1036152,1012960014,80,MN0603
05/16/2024 12:00:00 AM,Timeless Development LLC,4320 3rd Avenue,Brooklyn,New York,732-305-0876,11232,BROOKLYN,307,40.651285,-74.010858,38,3010903,3007270047,2,BK0702
05/17/2024 12:00:00 AM,Raptor Concrete LLC,99 Hudson Street,New York,New York,347-462-9354,10013,MANHATTAN,101,40.718974,-74.00877,1,1075728,1001817504,39,MN0102
05/23/2024 12:00:00 AM,"CVS Albany, L.L.C.",1 CVS Drive,Woonsocket,Rhodeisland,917-575-7386,02895,,,,,,,,,
05/23/2024 12:00:00 AM,"OCS Builders Group, LLC",420 Westbury Avenue,Carle Place,New York,516-747-1515,11514,,,,,,,,,
05/23/2024 12:00:00 AM,"Prime Construction USA, Inc.",143-10 94th Avenue,Queens,New York,718-454-3333,11435,QUEENS,412,40.698135,-73.809566,27,4000000,4099920027,208,QN1201
05/23/2024 12:00:00 AM,Titan Industrial Services Corp.,79-51 Cooper Avenue,Glendale,New York,718-424-0300,11385,,405,40.708683,-73.871366,30,4450604,4038010050,621,QN0504
05/31/2024 12:00:00 AM,101-24 Multi Specialty Plaza LLC,214 Brookville Road,Glen Head,New York,646-584-6460,11545,,,,,,,,,
05/31/2024 12:00:00 AM,Concept Construction Services Inc.,232 Madison Avenue,New York,New York,212-696-1023,10016,MANHATTAN,105,40.749887,-73.981832,4,1017194,1008670015,82,MN0502
05/31/2024 12:00:00 AM,Futura Builders Group Inc.,116-17 Sutphin Blvd.,Richmond Hill,New York,718-322-6363,11434,QUEENS,412,40.682095,-73.792537,28,4264634,4122010002,272,QN1203
05/31/2024 12:00:00 AM,"Hays Electrical Services, Inc.",5939 Albert Drive,Humble,Texas,281-601-4866,77396,,,,,,,,,
05/31/2024 12:00:00 AM,KV Apex 7806 Charter LLC,228 Park Avenue South,New York,New York,347-804-7829,10003,MANHATTAN,105,40.737481,-73.988366,2,1016152,1008470040,52,MN0501
05/31/2024 12:00:00 AM,"Navac Builders, Inc.",25 S Greenbush Road,Orangeburg,New York,845-848-2494,10952,,,,,,,,,
05/31/2024 12:00:00 AM,Starlite Plumbing & Heating Corp.,1421 63rd Street,Brooklyn,New York,718-256-6100,11219,BROOKLYN,311,40.625525,-73.997615,43,3141669,3057340018,192,BK1202
06/04/2024 12:00:00 AM,3065-3067 Perry Realty LLC,3071 Perry Avenue,Bronx,New York,845-893-5337,10467,BRONX,207,40.872588,-73.879572,11,2086853,2033340034,425,BX0703
06/11/2024 12:00:00 AM,Broadbridge Holdings LLC,234 Broadway,Brooklyn,New York,347-675-2160,11211,BROOKLYN,301,40.709108,-73.960313,34,3059646,3021400009,525,BK0102
06/11/2024 12:00:00 AM,Brookline Mechanical Inc.,8808 15th Avenue,Brooklyn,New York,718-259-1993,11228,BROOKLYN,311,40.607247,-74.013851,50,3168255,3064260059,170,BK1102
06/11/2024 12:00:00 AM,"Burgess Steel Erectors of New York, LLC",200 West Forest Avenue,Englewood,New Jersey,201-871-3500,07631,,,,,,,,,
06/11/2024 12:00:00 AM,Coyle Contracting Corp.,11 West 42nd Street,New York,New York,212-570-8276,10036,MANHATTAN,105,40.75379,-73.981599,4,1034198,1012580021,96,MN0502
06/11/2024 12:00:00 AM,"GMP Contracting, LLC",2240 South Clinton Avenue,South Plainfield,New Jersey,908-966-1641,07080,,,,,,,,,
06/11/2024 12:00:00 AM,Hardwell Acquisition LLC,150 West 30th Street,New York,New York,646-454-2933,10001,MANHATTAN,105,40.747876,-73.991064,3,1015152,1008050094,95,MN0501
06/11/2024 12:00:00 AM,Interstate Electric LLC,517 Lowe Avenue,Ridgefield,New Jersey,973-725-6057,07657,,,,,,,,,
06/11/2024 12:00:00 AM,Major General Construction 1 Corp.,14709 88th Avenue,Jamaica,New York,347-358-4356,11435,QUEENS,412,40.704924,-73.809024,27,4207092,4096920084,238,QN1201
06/11/2024 12:00:00 AM,"Starr Industries, L.L.C.",379 Fifth Avenue,New York,New York,646-756-4648,10016,MANHATTAN,105,40.749376,-73.983864,4,1017119,1008650004,82,MN0502
06/17/2024 12:00:00 AM,2510 Valentine Inc.,369 Lexington Avenue,New York,New York,212-983-0338,10016,MANHATTAN,106,40.750583,-73.976663,4,1036146,1012950020,80,MN0603
06/17/2024 12:00:00 AM,"773 Neptune Avenue QOZ, LLC",1864 Bath Avenue,Brooklyn,New York,347-215-3030,11214,BROOKLYN,311,40.602927,-74.004365,47,,,280,BK1102
06/17/2024 12:00:00 AM,Best 18 Construction Inc.,1703 McDonald Avenue,Brooklyn,New York,212-983-0338,11230,BROOKLYN,312,40.611161,-73.973434,44,3174699,3066080001,438,BK1204
06/17/2024 12:00:00 AM,"Chick-fil-A, Inc.",5200 Buffington Road,Atlanta,Georgia,404-305-4264,30349,,,,,,,,,
06/17/2024 12:00:00 AM,"John Gallin & Son, Inc.",102 Madison Avenue,New York,New York,212-252-8900,10016,MANHATTAN,105,40.74482,-73.985113,2,1016928,1008590015,74,MN0501
06/27/2024 12:00:00 AM,"Lorich Construction Management, LLC",2070 Derr Park Avenue,Deer Park,New York,631-254-3680,11729,,,,,,,,,
